{
"type": "FeatureCollection",
"features": [
{
  "type": "Feature",
  "id": "way/22453371",
  "properties": {
    "addr:housenumber": "60",
    "addr:street": "Zeughausstrasse",
    "amenity": "fire_station",
    "building": "yes",
    "building:roof": "flat",
    "name": "Feuerwehr Winterthur",
    "website": "http://www.feuerwehr.winterthur.ch/",
    "wikidata": "Q1409921",
    "id": "way/22453371"
  },
  "geometry": {
    "type": "Polygon",
    "coordinates": [
      [
        [
          8.733237,
          47.4950452
        ],
        [
          8.7333918,
          47.4950894
        ],
        [
          8.7333312,
          47.4951872
        ],
        [
          8.7342345,
          47.4954407
        ],
        [
          8.7341492,
          47.4955792
        ],
        [
          8.7341099,
          47.4955685
        ],
        [
          8.7340689,
          47.4956408
        ],
        [
          8.7340326,
          47.4956988
        ],
        [
          8.733141,
          47.4954497
        ],
        [
          8.7331874,
          47.4953729
        ],
        [
          8.7329879,
          47.4953148
        ],
        [
          8.733237,
          47.4950452
        ]
      ]
    ]
  }
},
{
  "type": "Feature",
  "id": "way/23793170",
  "properties": {
    "addr:city": "Männedorf",
    "addr:housenumber": "3",
    "addr:postcode": "8708",
    "addr:street": "Gewerbestrasse",
    "amenity": "fire_station",
    "building": "yes",
    "name": "Feuerwehr Männedorf-Uetikon",
    "id": "way/23793170"
  },
  "geometry": {
    "type": "Polygon",
    "coordinates": [
      [
        [
          8.7016346,
          47.2577488
        ],
        [
          8.7019223,
          47.2576438
        ],
        [
          8.7019606,
          47.2576921
        ],
        [
          8.7019637,
          47.257696
        ],
        [
          8.7020247,
          47.2576737
        ],
        [
          8.7020805,
          47.2577442
        ],
        [
          8.7021074,
          47.2577781
        ],
        [
          8.7019917,
          47.2578203
        ],
        [
          8.70207,
          47.257919
        ],
        [
          8.7020771,
          47.257928
        ],
        [
          8.7018524,
          47.2580101
        ],
        [
          8.7017244,
          47.2578487
        ],
        [
          8.701705,
          47.2578557
        ],
        [
          8.7016619,
          47.2578014
        ],
        [
          8.701673,
          47.2577973
        ],
        [
          8.7016346,
          47.2577488
        ]
      ]
    ]
  }
},
{
  "type": "Feature",
  "id": "way/24388711",
  "properties": {
    "addr:city": "Meilen",
    "addr:country": "CH",
    "addr:housenumber": "7",
    "addr:postcode": "8706",
    "addr:street": "Bruechstrasse",
    "alt_name": "Feuerwehr Meilen",
    "amenity": "fire_station",
    "building": "yes",
    "name": "Stützpunktfeuerwehr Meilen",
    "operator": "Gemeinde Meilen",
    "id": "way/24388711"
  },
  "geometry": {
    "type": "Polygon",
    "coordinates": [
      [
        [
          8.6423047,
          47.2717732
        ],
        [
          8.642282,
          47.2717305
        ],
        [
          8.6422562,
          47.271716
        ],
        [
          8.6422725,
          47.2717022
        ],
        [
          8.6422913,
          47.27169
        ],
        [
          8.6423121,
          47.2716798
        ],
        [
          8.6423352,
          47.2716702
        ],
        [
          8.6428753,
          47.2715376
        ],
        [
          8.6429213,
          47.2716232
        ],
        [
          8.6428695,
          47.2716357
        ],
        [
          8.6428365,
          47.271573
        ],
        [
          8.6427912,
          47.2715846
        ],
        [
          8.6428241,
          47.2716463
        ],
        [
          8.642776,
          47.2716583
        ],
        [
          8.6427441,
          47.2715962
        ],
        [
          8.6426974,
          47.2716078
        ],
        [
          8.6427306,
          47.2716695
        ],
        [
          8.6426805,
          47.2716811
        ],
        [
          8.6426481,
          47.27162
        ],
        [
          8.6426036,
          47.2716315
        ],
        [
          8.6426355,
          47.2716918
        ],
        [
          8.6425865,
          47.2717039
        ],
        [
          8.6425536,
          47.2716425
        ],
        [
          8.6425092,
          47.2716536
        ],
        [
          8.6425422,
          47.2717143
        ],
        [
          8.6424931,
          47.2717271
        ],
        [
          8.6424592,
          47.2716657
        ],
        [
          8.6424137,
          47.2716773
        ],
        [
          8.6424463,
          47.2717383
        ],
        [
          8.6423047,
          47.2717732
        ]
      ]
    ]
  }
},
{
  "type": "Feature",
  "id": "way/24434272",
  "properties": {
    "addr:city": "Oetwil am See",
    "addr:housenumber": "4",
    "addr:postcode": "8618",
    "addr:street": "Speerweg",
    "amenity": "fire_station",
    "building": "yes",
    "id": "way/24434272"
  },
  "geometry": {
    "type": "Polygon",
    "coordinates": [
      [
        [
          8.7235773,
          47.2736761
        ],
        [
          8.7233574,
          47.2735162
        ],
        [
          8.7236756,
          47.2733147
        ],
        [
          8.7238955,
          47.2734745
        ],
        [
          8.7235773,
          47.2736761
        ]
      ]
    ]
  }
},
{
  "type": "Feature",
  "id": "way/29731382",
  "properties": {
    "amenity": "fire_station",
    "building": "yes",
    "name": "Feuerwehr Haus",
    "id": "way/29731382"
  },
  "geometry": {
    "type": "Polygon",
    "coordinates": [
      [
        [
          8.7185492,
          47.4343669
        ],
        [
          8.7186084,
          47.4342952
        ],
        [
          8.718633,
          47.4343045
        ],
        [
          8.7186662,
          47.434317
        ],
        [
          8.7186073,
          47.4343887
        ],
        [
          8.7185492,
          47.4343669
        ]
      ]
    ]
  }
},
{
  "type": "Feature",
  "id": "way/29856072",
  "properties": {
    "addr:city": "Zürich",
    "addr:country": "CH",
    "addr:housenumber": "4",
    "addr:postcode": "8003",
    "addr:street": "Weststrasse",
    "amenity": "fire_station",
    "building": "yes",
    "name": "Berufsfeuerwehr Zürich",
    "operator": "Stadt Zürich",
    "id": "way/29856072"
  },
  "geometry": {
    "type": "Polygon",
    "coordinates": [
      [
        [
          8.5248429,
          47.3692294
        ],
        [
          8.5246493,
          47.3692722
        ],
        [
          8.5246893,
          47.3693551
        ],
        [
          8.5246037,
          47.369374
        ],
        [
          8.5246048,
          47.3693764
        ],
        [
          8.5245826,
          47.3693813
        ],
        [
          8.5245651,
          47.3693448
        ],
        [
          8.5244913,
          47.3691917
        ],
        [
          8.5244906,
          47.3691903
        ],
        [
          8.5244826,
          47.3691737
        ],
        [
          8.5249211,
          47.3690767
        ],
        [
          8.5249509,
          47.369092
        ],
        [
          8.5249486,
          47.3691096
        ],
        [
          8.524995,
          47.3691345
        ],
        [
          8.5248675,
          47.3692428
        ],
        [
          8.5248429,
          47.3692294
        ]
      ]
    ]
  }
},
{
  "type": "Feature",
  "id": "way/31827427",
  "properties": {
    "addr:city": "Horgen",
    "addr:housenumber": "21",
    "addr:postcode": "8810",
    "addr:street": "Waldeggstrasse",
    "amenity": "fire_station",
    "building": "yes",
    "name": "Feuerwehr Horgen - Depot Horgen",
    "id": "way/31827427"
  },
  "geometry": {
    "type": "Polygon",
    "coordinates": [
      [
        [
          8.6020688,
          47.2456967
        ],
        [
          8.6027865,
          47.2451857
        ],
        [
          8.6029794,
          47.2453105
        ],
        [
          8.6024811,
          47.2456654
        ],
        [
          8.6024014,
          47.2456138
        ],
        [
          8.6021821,
          47.24577
        ],
        [
          8.6020688,
          47.2456967
        ]
      ]
    ]
  }
},
{
  "type": "Feature",
  "id": "way/32120469",
  "properties": {
    "addr:city": "Mönchaltorf",
    "addr:country": "CH",
    "addr:housename": "Feuerwehr Mönchaltorf",
    "addr:housenumber": "24",
    "addr:postcode": "8617",
    "addr:street": "Esslingerstrasse",
    "amenity": "fire_station",
    "building": "yes",
    "noname": "yes",
    "id": "way/32120469"
  },
  "geometry": {
    "type": "Polygon",
    "coordinates": [
      [
        [
          8.720155,
          47.3053429
        ],
        [
          8.7201065,
          47.305059
        ],
        [
          8.7204145,
          47.3050348
        ],
        [
          8.720463,
          47.3053186
        ],
        [
          8.720155,
          47.3053429
        ]
      ]
    ]
  }
},
{
  "type": "Feature",
  "id": "way/32499093",
  "properties": {
    "addr:city": "Effretikon",
    "addr:housenumber": "41",
    "addr:postcode": "8307",
    "addr:street": "Grendelbachstrasse",
    "amenity": "fire_station",
    "building": "yes",
    "name": "Feuerwehr Effretikon",
    "source": "Yahoo",
    "id": "way/32499093"
  },
  "geometry": {
    "type": "Polygon",
    "coordinates": [
      [
        [
          8.6923551,
          47.4225376
        ],
        [
          8.6925935,
          47.4226108
        ],
        [
          8.6924252,
          47.4228617
        ],
        [
          8.6924085,
          47.4228566
        ],
        [
          8.6923847,
          47.4228922
        ],
        [
          8.6924333,
          47.4229071
        ],
        [
          8.6923971,
          47.4229612
        ],
        [
          8.6921267,
          47.4228782
        ],
        [
          8.6923551,
          47.4225376
        ]
      ]
    ]
  }
},
{
  "type": "Feature",
  "id": "way/32893880",
  "properties": {
    "addr:city": "Stäfa",
    "addr:country": "CH",
    "addr:housenumber": "93",
    "addr:postcode": "8712",
    "addr:street": "Seestrasse",
    "amenity": "fire_station",
    "building": "yes",
    "name": "Feuerwehr Stäfa",
    "id": "way/32893880"
  },
  "geometry": {
    "type": "Polygon",
    "coordinates": [
      [
        [
          8.7241074,
          47.2387448
        ],
        [
          8.7244798,
          47.2387106
        ],
        [
          8.724523,
          47.2388568
        ],
        [
          8.7244097,
          47.2388664
        ],
        [
          8.7244033,
          47.2388534
        ],
        [
          8.7243035,
          47.2388621
        ],
        [
          8.7243451,
          47.2390231
        ],
        [
          8.7241841,
          47.2390423
        ],
        [
          8.7241694,
          47.2389852
        ],
        [
          8.7241074,
          47.2387448
        ]
      ]
    ]
  }
},
{
  "type": "Feature",
  "id": "way/32942803",
  "properties": {
    "addr:city": "Glattfelnden",
    "addr:housenumber": "3",
    "addr:postcode": "8192",
    "addr:street": "Aarütistrasse",
    "amenity": "fire_station",
    "building": "yes",
    "name": "Feuerwehr Glastawei - Depot Glattfelden",
    "id": "way/32942803"
  },
  "geometry": {
    "type": "Polygon",
    "coordinates": [
      [
        [
          8.4931877,
          47.5594591
        ],
        [
          8.4933792,
          47.5593003
        ],
        [
          8.4938819,
          47.5595765
        ],
        [
          8.4936904,
          47.5597352
        ],
        [
          8.4931877,
          47.5594591
        ]
      ]
    ]
  }
},
{
  "type": "Feature",
  "id": "way/33919479",
  "properties": {
    "addr:housenumber": "70",
    "addr:street": "Zürcherstrasse",
    "amenity": "fire_station",
    "building": "yes",
    "name": "Feuerwehr Thalwil",
    "id": "way/33919479"
  },
  "geometry": {
    "type": "Polygon",
    "coordinates": [
      [
        [
          8.5646511,
          47.2856109
        ],
        [
          8.564956,
          47.285357
        ],
        [
          8.5651284,
          47.2854523
        ],
        [
          8.5648236,
          47.2857062
        ],
        [
          8.5646511,
          47.2856109
        ]
      ]
    ]
  }
},
{
  "type": "Feature",
  "id": "way/35994734",
  "properties": {
    "addr:city": "Hettlingen",
    "addr:housenumber": "17",
    "addr:postcode": "8442",
    "addr:street": "Unterdorfstrasse",
    "amenity": "fire_station",
    "building": "yes",
    "name": "Feuerwehr Hettlingen-Dägerlen - Depot Hettlingen",
    "id": "way/35994734"
  },
  "geometry": {
    "type": "Polygon",
    "coordinates": [
      [
        [
          8.706347,
          47.5448509
        ],
        [
          8.7064344,
          47.544703
        ],
        [
          8.7065757,
          47.544743
        ],
        [
          8.7065624,
          47.5447662
        ],
        [
          8.7067102,
          47.5448077
        ],
        [
          8.7066328,
          47.5449338
        ],
        [
          8.706347,
          47.5448509
        ]
      ]
    ]
  }
},
{
  "type": "Feature",
  "id": "way/37145253",
  "properties": {
    "addr:city": "Adlswil",
    "addr:housenumber": "4",
    "addr:postcode": "8134",
    "addr:street": "Tüfistrasse",
    "amenity": "fire_station",
    "building": "yes",
    "name": "Feuerwehr Adliswil",
    "source": "Übersichtsplan Zürich",
    "id": "way/37145253"
  },
  "geometry": {
    "type": "Polygon",
    "coordinates": [
      [
        [
          8.5284844,
          47.3180312
        ],
        [
          8.5285686,
          47.3178696
        ],
        [
          8.5288594,
          47.3179393
        ],
        [
          8.5289146,
          47.3179525
        ],
        [
          8.5289662,
          47.3178534
        ],
        [
          8.5290078,
          47.3178643
        ],
        [
          8.5291438,
          47.3178951
        ],
        [
          8.5290111,
          47.3181573
        ],
        [
          8.5284844,
          47.3180312
        ]
      ]
    ]
  }
},
{
  "type": "Feature",
  "id": "way/38612981",
  "properties": {
    "addr:housenumber": "10",
    "addr:street": "Schöntalstrasse",
    "amenity": "fire_station",
    "building": "yes",
    "name": "Werkhof",
    "id": "way/38612981"
  },
  "geometry": {
    "type": "Polygon",
    "coordinates": [
      [
        [
          8.7925061,
          47.4511784
        ],
        [
          8.793039,
          47.4509664
        ],
        [
          8.7931995,
          47.451151
        ],
        [
          8.792771,
          47.4513214
        ],
        [
          8.7927934,
          47.4513471
        ],
        [
          8.792689,
          47.4513886
        ],
        [
          8.7925061,
          47.4511784
        ]
      ]
    ]
  }
},
{
  "type": "Feature",
  "id": "way/43043284",
  "properties": {
    "amenity": "fire_station",
    "building": "yes",
    "name": "Flughafenfeuerwehr, Wache Nord",
    "id": "way/43043284"
  },
  "geometry": {
    "type": "Polygon",
    "coordinates": [
      [
        [
          8.5434903,
          47.4715375
        ],
        [
          8.5436085,
          47.4713682
        ],
        [
          8.5438576,
          47.4714476
        ],
        [
          8.5437395,
          47.4716169
        ],
        [
          8.5434903,
          47.4715375
        ]
      ]
    ]
  }
},
{
  "type": "Feature",
  "id": "way/44045429",
  "properties": {
    "addr:city": "Birmensdorf (ZH)",
    "addr:country": "CH",
    "addr:housenumber": "2",
    "addr:postcode": "8903",
    "addr:street": "Breitestrasse",
    "amenity": "fire_station",
    "building": "yes",
    "name": "Feuerwehr Birmensdorf",
    "id": "way/44045429"
  },
  "geometry": {
    "type": "Polygon",
    "coordinates": [
      [
        [
          8.435676,
          47.352098
        ],
        [
          8.4355894,
          47.3521847
        ],
        [
          8.435555,
          47.3521689
        ],
        [
          8.4355363,
          47.3521876
        ],
        [
          8.4355489,
          47.3521934
        ],
        [
          8.4354417,
          47.3523007
        ],
        [
          8.435271,
          47.3522224
        ],
        [
          8.4353999,
          47.3520935
        ],
        [
          8.4354225,
          47.3521038
        ],
        [
          8.4355062,
          47.3520201
        ],
        [
          8.435676,
          47.352098
        ]
      ]
    ]
  }
},
{
  "type": "Feature",
  "id": "way/45521049",
  "properties": {
    "addr:city": "Greifensee",
    "addr:housenumber": "34",
    "addr:postcode": "8606",
    "addr:street": "Tumigerstrasse",
    "amenity": "fire_station",
    "building": "yes",
    "name": "Feuerwehr Greifensee",
    "id": "way/45521049"
  },
  "geometry": {
    "type": "Polygon",
    "coordinates": [
      [
        [
          8.6810046,
          47.3652883
        ],
        [
          8.6809342,
          47.3652609
        ],
        [
          8.6808551,
          47.3653561
        ],
        [
          8.680666,
          47.365284
        ],
        [
          8.6808681,
          47.3650407
        ],
        [
          8.6811297,
          47.3651409
        ],
        [
          8.6810046,
          47.3652883
        ]
      ]
    ]
  }
},
{
  "type": "Feature",
  "id": "way/45521213",
  "properties": {
    "addr:city": "Nänikon",
    "addr:country": "CH",
    "addr:housenumber": "1",
    "addr:postcode": "8606",
    "addr:street": "Heuwinkelstrasse",
    "amenity": "fire_station",
    "building": "yes",
    "building:levels": "2",
    "name": "Betriebsfeuerwehr Mettler Toledo",
    "name:de": "Betriebsfeuerwehr Mettler Toledo",
    "name:en": "Plant Fire Department Mettler Toledo",
    "id": "way/45521213"
  },
  "geometry": {
    "type": "Polygon",
    "coordinates": [
      [
        [
          8.6876908,
          47.3678984
        ],
        [
          8.6878458,
          47.3681015
        ],
        [
          8.687347,
          47.3682761
        ],
        [
          8.6872978,
          47.3682116
        ],
        [
          8.6873923,
          47.3681785
        ],
        [
          8.6873399,
          47.3681098
        ],
        [
          8.6872454,
          47.3681429
        ],
        [
          8.687192,
          47.368073
        ],
        [
          8.6876908,
          47.3678984
        ]
      ]
    ]
  }
},
{
  "type": "Feature",
  "id": "way/46187869",
  "properties": {
    "addr:city": "Embrach",
    "addr:housenumber": "29a",
    "addr:postcode": "8424",
    "addr:street": "Schützenhausstrasse",
    "amenity": "fire_station",
    "building": "yes",
    "source": "Yahoo aerial images",
    "id": "way/46187869"
  },
  "geometry": {
    "type": "Polygon",
    "coordinates": [
      [
        [
          8.5953075,
          47.5039452
        ],
        [
          8.5953565,
          47.503836
        ],
        [
          8.5953965,
          47.5038442
        ],
        [
          8.5954834,
          47.5036504
        ],
        [
          8.5956467,
          47.5036839
        ],
        [
          8.5955107,
          47.5039868
        ],
        [
          8.5953075,
          47.5039452
        ]
      ]
    ]
  }
},
{
  "type": "Feature",
  "id": "way/46345492",
  "properties": {
    "addr:city": "Flaach",
    "addr:housenumber": "13",
    "addr:postcode": "8416",
    "addr:street": "Webergasse",
    "amenity": "fire_station",
    "building": "yes",
    "name": "Feuerwehr Flaachtal - Hauptdepot",
    "id": "way/46345492"
  },
  "geometry": {
    "type": "Polygon",
    "coordinates": [
      [
        [
          8.6065118,
          47.5765997
        ],
        [
          8.6064806,
          47.5764652
        ],
        [
          8.6067863,
          47.5764329
        ],
        [
          8.6068174,
          47.5765674
        ],
        [
          8.6065118,
          47.5765997
        ]
      ]
    ]
  }
},
{
  "type": "Feature",
  "id": "way/46974264",
  "properties": {
    "addr:housenumber": "15",
    "addr:street": "Maulackerstrasse",
    "amenity": "fire_station",
    "building": "yes",
    "name": "Feuerwehr Altbach - Depot Nürensdorf",
    "id": "way/46974264"
  },
  "geometry": {
    "type": "Polygon",
    "coordinates": [
      [
        [
          8.6464861,
          47.4484814
        ],
        [
          8.6467494,
          47.4485294
        ],
        [
          8.6466411,
          47.4488013
        ],
        [
          8.6463778,
          47.4487533
        ],
        [
          8.6464861,
          47.4484814
        ]
      ]
    ]
  }
},
{
  "type": "Feature",
  "id": "way/47088770",
  "properties": {
    "addr:city": "Neftenbach",
    "addr:housenumber": "24",
    "addr:postcode": "8413",
    "addr:street": "Seuzachstrasse",
    "amenity": "fire_station",
    "building": "yes",
    "name": "Feuerwehr Neftenbach",
    "source": "Yahoo aerial images",
    "id": "way/47088770"
  },
  "geometry": {
    "type": "Polygon",
    "coordinates": [
      [
        [
          8.6713899,
          47.5294063
        ],
        [
          8.6716111,
          47.5290777
        ],
        [
          8.6718649,
          47.5291555
        ],
        [
          8.6717248,
          47.5293636
        ],
        [
          8.6719411,
          47.52943
        ],
        [
          8.67186,
          47.5295505
        ],
        [
          8.6713899,
          47.5294063
        ]
      ]
    ]
  }
},
{
  "type": "Feature",
  "id": "way/47248106",
  "properties": {
    "amenity": "fire_station",
    "building": "yes",
    "name": "Feuerwehr Andelfingen - Depot Henggart",
    "id": "way/47248106"
  },
  "geometry": {
    "type": "Polygon",
    "coordinates": [
      [
        [
          8.6805028,
          47.5657667
        ],
        [
          8.6807824,
          47.5655274
        ],
        [
          8.6808238,
          47.5655495
        ],
        [
          8.6808589,
          47.5655195
        ],
        [
          8.6809584,
          47.5655724
        ],
        [
          8.6806437,
          47.5658416
        ],
        [
          8.6805028,
          47.5657667
        ]
      ]
    ]
  }
},
{
  "type": "Feature",
  "id": "way/47298400",
  "properties": {
    "addr:city": "Andelfingen",
    "addr:housenumber": "5",
    "addr:postcode": "8450",
    "addr:street": "Im Bilg",
    "amenity": "fire_station",
    "building": "yes",
    "name": "Feuerwehr Andelfingen",
    "id": "way/47298400"
  },
  "geometry": {
    "type": "Polygon",
    "coordinates": [
      [
        [
          8.6876704,
          47.5945993
        ],
        [
          8.6881173,
          47.5943888
        ],
        [
          8.6883255,
          47.5945899
        ],
        [
          8.6882432,
          47.5946287
        ],
        [
          8.6882121,
          47.5945986
        ],
        [
          8.6881176,
          47.5946431
        ],
        [
          8.6880909,
          47.5946173
        ],
        [
          8.6880071,
          47.5946567
        ],
        [
          8.6879804,
          47.5946309
        ],
        [
          8.6878913,
          47.5946728
        ],
        [
          8.6878726,
          47.5946547
        ],
        [
          8.6877753,
          47.5947006
        ],
        [
          8.6876704,
          47.5945993
        ]
      ]
    ]
  }
},
{
  "type": "Feature",
  "id": "way/49749980",
  "properties": {
    "addr:city": "Rafz",
    "addr:housenumber": "6",
    "addr:postcode": "8197",
    "addr:street": "Tannewäg",
    "amenity": "fire_station",
    "building": "yes",
    "name": "Feuerwehr Rafz-Wil - Depot Rafz",
    "id": "way/49749980"
  },
  "geometry": {
    "type": "Polygon",
    "coordinates": [
      [
        [
          8.5387369,
          47.6090091
        ],
        [
          8.5385158,
          47.6089473
        ],
        [
          8.5386241,
          47.6087712
        ],
        [
          8.5388452,
          47.6088329
        ],
        [
          8.5387369,
          47.6090091
        ]
      ]
    ]
  }
},
{
  "type": "Feature",
  "id": "way/50561433",
  "properties": {
    "amenity": "fire_station",
    "building": "yes",
    "id": "way/50561433"
  },
  "geometry": {
    "type": "Polygon",
    "coordinates": [
      [
        [
          8.7126581,
          47.5347048
        ],
        [
          8.7126599,
          47.5346105
        ],
        [
          8.7127282,
          47.5346111
        ],
        [
          8.7127275,
          47.5346503
        ],
        [
          8.7127559,
          47.5346505
        ],
        [
          8.7127548,
          47.5347056
        ],
        [
          8.7126581,
          47.5347048
        ]
      ]
    ]
  }
},
{
  "type": "Feature",
  "id": "way/51334233",
  "properties": {
    "addr:city": "Wettswil",
    "addr:housenumber": "4",
    "addr:postcode": "8907",
    "addr:street": "Schulstrasse",
    "amenity": "fire_station",
    "building": "yes",
    "name": "Feuerwehr Unteramt - Depot Wettswil",
    "id": "way/51334233"
  },
  "geometry": {
    "type": "Polygon",
    "coordinates": [
      [
        [
          8.474852,
          47.3380881
        ],
        [
          8.4748852,
          47.3379807
        ],
        [
          8.4750174,
          47.3379995
        ],
        [
          8.4750095,
          47.338025
        ],
        [
          8.4750064,
          47.3380245
        ],
        [
          8.4749811,
          47.3381064
        ],
        [
          8.474852,
          47.3380881
        ]
      ]
    ]
  }
},
{
  "type": "Feature",
  "id": "way/52924472",
  "properties": {
    "addr:city": "Aeugst am Albis",
    "addr:housenumber": "2",
    "addr:postcode": "8914",
    "addr:street": "Pfarrhausweg",
    "amenity": "fire_station",
    "building": "yes",
    "name": "Feuerwehr Aeugst am Albis",
    "id": "way/52924472"
  },
  "geometry": {
    "type": "Polygon",
    "coordinates": [
      [
        [
          8.4862175,
          47.267556
        ],
        [
          8.4864784,
          47.2674506
        ],
        [
          8.4865596,
          47.2675433
        ],
        [
          8.4864359,
          47.2675932
        ],
        [
          8.4864611,
          47.2676219
        ],
        [
          8.4864059,
          47.2676442
        ],
        [
          8.4863805,
          47.2676152
        ],
        [
          8.4862986,
          47.2676482
        ],
        [
          8.4862562,
          47.2675999
        ],
        [
          8.4862391,
          47.2676068
        ],
        [
          8.486223,
          47.2675884
        ],
        [
          8.4862399,
          47.2675816
        ],
        [
          8.4862175,
          47.267556
        ]
      ]
    ]
  }
},
{
  "type": "Feature",
  "id": "way/53141743",
  "properties": {
    "addr:city": "Fällanden",
    "addr:country": "CH",
    "addr:housenumber": "21",
    "addr:postcode": "8117",
    "addr:street": "Dübendorfstrasse",
    "amenity": "fire_station",
    "building": "yes",
    "name": "Feuerwehr Fällanden",
    "id": "way/53141743"
  },
  "geometry": {
    "type": "Polygon",
    "coordinates": [
      [
        [
          8.6348723,
          47.3729933
        ],
        [
          8.6346449,
          47.3728555
        ],
        [
          8.6348721,
          47.3726836
        ],
        [
          8.6349382,
          47.3727237
        ],
        [
          8.6349921,
          47.3726829
        ],
        [
          8.6350595,
          47.3727238
        ],
        [
          8.6350012,
          47.3727679
        ],
        [
          8.6350716,
          47.3728106
        ],
        [
          8.6351444,
          47.3727556
        ],
        [
          8.6352363,
          47.3728113
        ],
        [
          8.6351402,
          47.372884
        ],
        [
          8.6350717,
          47.3728424
        ],
        [
          8.6348723,
          47.3729933
        ]
      ]
    ]
  }
},
{
  "type": "Feature",
  "id": "way/61540529",
  "properties": {
    "addr:city": "Zollikon",
    "addr:country": "CH",
    "addr:housenumber": "10",
    "addr:postcode": "8702",
    "addr:street": "Bergstrasse",
    "amenity": "fire_station",
    "building": "yes",
    "name": "Gemeindepolizei und Feuerwehr",
    "id": "way/61540529"
  },
  "geometry": {
    "type": "Polygon",
    "coordinates": [
      [
        [
          8.5751966,
          47.340505
        ],
        [
          8.5752243,
          47.3404323
        ],
        [
          8.5755665,
          47.3404914
        ],
        [
          8.5755356,
          47.3405629
        ],
        [
          8.5751966,
          47.340505
        ]
      ]
    ]
  }
},
{
  "type": "Feature",
  "id": "way/93119271",
  "properties": {
    "addr:city": "Weisslingen",
    "addr:housenumber": "40",
    "addr:postcode": "8484",
    "addr:street": "Dorfstrasse",
    "amenity": "fire_station",
    "building": "yes",
    "name": "Feuerwehr Weisslingen",
    "id": "way/93119271"
  },
  "geometry": {
    "type": "Polygon",
    "coordinates": [
      [
        [
          8.763354,
          47.4333392
        ],
        [
          8.763322,
          47.4331965
        ],
        [
          8.7636112,
          47.4331668
        ],
        [
          8.7636432,
          47.4333095
        ],
        [
          8.763354,
          47.4333392
        ]
      ]
    ]
  }
},
{
  "type": "Feature",
  "id": "way/94119195",
  "properties": {
    "addr:housenumber": "27",
    "addr:street": "Rossauerstrasse",
    "amenity": "fire_station",
    "building": "yes",
    "email": "info@fwks.ch",
    "name": "Feuerwehr Knonaueramt Süd",
    "website": "http://www.fwks.ch",
    "id": "way/94119195"
  },
  "geometry": {
    "type": "Polygon",
    "coordinates": [
      [
        [
          8.4680627,
          47.2408644
        ],
        [
          8.4678664,
          47.240755
        ],
        [
          8.468071,
          47.2405857
        ],
        [
          8.4682673,
          47.2406951
        ],
        [
          8.4680627,
          47.2408644
        ]
      ]
    ]
  }
},
{
  "type": "Feature",
  "id": "way/95932943",
  "properties": {
    "addr:housenumber": "104",
    "addr:street": "Langenhardstrasse",
    "amenity": "fire_station",
    "building": "yes",
    "id": "way/95932943"
  },
  "geometry": {
    "type": "Polygon",
    "coordinates": [
      [
        [
          8.8015867,
          47.4509693
        ],
        [
          8.8015131,
          47.450934
        ],
        [
          8.8015762,
          47.4508738
        ],
        [
          8.8016498,
          47.4509091
        ],
        [
          8.8015867,
          47.4509693
        ]
      ]
    ]
  }
},
{
  "type": "Feature",
  "id": "way/96279458",
  "properties": {
    "addr:city": "Dielsdorf",
    "addr:postcode": "8157",
    "addr:street": "Nassenwilerstrasse",
    "amenity": "fire_station",
    "building": "yes",
    "name": "Feuerwehr Dielsdorf",
    "id": "way/96279458"
  },
  "geometry": {
    "type": "Polygon",
    "coordinates": [
      [
        [
          8.4597724,
          47.477791
        ],
        [
          8.4597725,
          47.4775224
        ],
        [
          8.4599551,
          47.4775224
        ],
        [
          8.4599551,
          47.4775308
        ],
        [
          8.460754,
          47.4775307
        ],
        [
          8.460754,
          47.4776158
        ],
        [
          8.4608075,
          47.4776158
        ],
        [
          8.4608074,
          47.4777526
        ],
        [
          8.4599052,
          47.4777525
        ],
        [
          8.4599052,
          47.477791
        ],
        [
          8.4597724,
          47.477791
        ]
      ]
    ]
  }
},
{
  "type": "Feature",
  "id": "way/96385104",
  "properties": {
    "addr:city": "Aesch (ZH)",
    "addr:country": "CH",
    "addr:housenumber": "23",
    "addr:postcode": "8904",
    "addr:street": "Lielistrasse",
    "amenity": "fire_station",
    "building": "yes",
    "name": "Werkhof",
    "id": "way/96385104"
  },
  "geometry": {
    "type": "Polygon",
    "coordinates": [
      [
        [
          8.4328237,
          47.3355638
        ],
        [
          8.4328409,
          47.3353331
        ],
        [
          8.4330124,
          47.335339
        ],
        [
          8.4330089,
          47.3353855
        ],
        [
          8.4329951,
          47.3355697
        ],
        [
          8.4328866,
          47.335566
        ],
        [
          8.4328237,
          47.3355638
        ]
      ]
    ]
  }
},
{
  "type": "Feature",
  "id": "way/98240697",
  "properties": {
    "addr:city": "Oberengstringen",
    "addr:housenumber": "116",
    "addr:postcode": "8102",
    "addr:street": "Zürcherstrasse",
    "amenity": "fire_station",
    "building": "yes",
    "name": "Feuerwehr Engstringen",
    "operator": "Gemeinden Ober- & Unterengstringen",
    "website": "https://www.feuerwehr-engstringen.ch/",
    "id": "way/98240697"
  },
  "geometry": {
    "type": "Polygon",
    "coordinates": [
      [
        [
          8.4617604,
          47.4097021
        ],
        [
          8.4617386,
          47.4096126
        ],
        [
          8.4619041,
          47.4095927
        ],
        [
          8.4619239,
          47.4096797
        ],
        [
          8.4618969,
          47.4096886
        ],
        [
          8.4618995,
          47.409703
        ],
        [
          8.4618457,
          47.409709
        ],
        [
          8.4618558,
          47.4097551
        ],
        [
          8.4617758,
          47.4097655
        ],
        [
          8.4617604,
          47.4097021
        ]
      ]
    ]
  }
},
{
  "type": "Feature",
  "id": "way/99241886",
  "properties": {
    "addr:city": "Kilchberg ZH",
    "addr:housenumber": "166",
    "addr:postcode": "8802",
    "addr:street": "Alte Landstrasse",
    "amenity": "fire_station",
    "building": "yes",
    "name": "Feuerwehr Kilchberg-Rüschlikon",
    "id": "way/99241886"
  },
  "geometry": {
    "type": "Polygon",
    "coordinates": [
      [
        [
          8.5452696,
          47.3194757
        ],
        [
          8.5453136,
          47.3192754
        ],
        [
          8.5454891,
          47.3192931
        ],
        [
          8.5454543,
          47.319452
        ],
        [
          8.5454452,
          47.3194934
        ],
        [
          8.5452696,
          47.3194757
        ]
      ]
    ]
  }
},
{
  "type": "Feature",
  "id": "way/99840709",
  "properties": {
    "addr:city": "Ottikon",
    "addr:housenumber": "1",
    "addr:postcode": "8626",
    "addr:street": "Rössliwiese",
    "amenity": "fire_station",
    "building": "yes",
    "building:levels": "2",
    "name": "Feuerwehr Gossau ZH",
    "website": "https://www.feuerwehrgossau.ch",
    "id": "way/99840709"
  },
  "geometry": {
    "type": "Polygon",
    "coordinates": [
      [
        [
          8.7767211,
          47.2914704
        ],
        [
          8.7767847,
          47.2917562
        ],
        [
          8.7762922,
          47.2918067
        ],
        [
          8.7762286,
          47.2915209
        ],
        [
          8.7767211,
          47.2914704
        ]
      ]
    ]
  }
},
{
  "type": "Feature",
  "id": "way/100309601",
  "properties": {
    "addr:housenumber": "10",
    "addr:postcode": "8805",
    "addr:street": "Sunnengartenstrasse",
    "amenity": "fire_station",
    "building": "yes",
    "name": "Feuerwehr Richterswil - Depot Richterswil",
    "id": "way/100309601"
  },
  "geometry": {
    "type": "Polygon",
    "coordinates": [
      [
        [
          8.7042073,
          47.205838
        ],
        [
          8.7041988,
          47.2058301
        ],
        [
          8.7042787,
          47.2057903
        ],
        [
          8.7043054,
          47.205815
        ],
        [
          8.7044672,
          47.2057346
        ],
        [
          8.7045375,
          47.2057998
        ],
        [
          8.7044711,
          47.2058328
        ],
        [
          8.7045069,
          47.2058659
        ],
        [
          8.7043095,
          47.2059641
        ],
        [
          8.7043635,
          47.2060142
        ],
        [
          8.7042398,
          47.2060757
        ],
        [
          8.7041257,
          47.2059699
        ],
        [
          8.7042037,
          47.2059311
        ],
        [
          8.7041396,
          47.2058716
        ],
        [
          8.7042073,
          47.205838
        ]
      ]
    ]
  }
},
{
  "type": "Feature",
  "id": "way/103534432",
  "properties": {
    "amenity": "fire_station",
    "building": "yes",
    "name": "Feuerwehr Höri-Hochfelden - Depot Hochfelden",
    "id": "way/103534432"
  },
  "geometry": {
    "type": "Polygon",
    "coordinates": [
      [
        [
          8.5179737,
          47.5227454
        ],
        [
          8.5177267,
          47.5230198
        ],
        [
          8.5175006,
          47.522927
        ],
        [
          8.5177477,
          47.5226526
        ],
        [
          8.5179737,
          47.5227454
        ]
      ]
    ]
  }
},
{
  "type": "Feature",
  "id": "way/114188576",
  "properties": {
    "amenity": "fire_station",
    "building": "yes",
    "name": "Feuerwehr Bassersdorf",
    "id": "way/114188576"
  },
  "geometry": {
    "type": "Polygon",
    "coordinates": [
      [
        [
          8.6362592,
          47.4375391
        ],
        [
          8.6365891,
          47.4370727
        ],
        [
          8.6368785,
          47.4371706
        ],
        [
          8.6365529,
          47.4376341
        ],
        [
          8.6362592,
          47.4375391
        ]
      ]
    ]
  }
},
{
  "type": "Feature",
  "id": "way/114205218",
  "properties": {
    "addr:city": "Urdorf",
    "addr:housenumber": "103",
    "addr:postcode": "8902",
    "addr:street": "Birmensdorferstrasse",
    "amenity": "fire_station",
    "building": "retail",
    "building:levels": "1",
    "name": "Feuerwehr Urdorf",
    "roof:shape": "flat",
    "id": "way/114205218"
  },
  "geometry": {
    "type": "Polygon",
    "coordinates": [
      [
        [
          8.4226075,
          47.3832111
        ],
        [
          8.4225348,
          47.3834171
        ],
        [
          8.4223286,
          47.3833837
        ],
        [
          8.422374,
          47.3832554
        ],
        [
          8.4224285,
          47.3832642
        ],
        [
          8.4224886,
          47.3830941
        ],
        [
          8.4226127,
          47.3831142
        ],
        [
          8.4225874,
          47.3831859
        ],
        [
          8.4225751,
          47.383184
        ],
        [
          8.4225678,
          47.3832046
        ],
        [
          8.4226075,
          47.3832111
        ]
      ]
    ]
  }
},
{
  "type": "Feature",
  "id": "way/115963467",
  "properties": {
    "addr:city": "Wiesendangen",
    "addr:housenumber": "9",
    "addr:postcode": "8542",
    "addr:street": "Trottenstrasse",
    "amenity": "fire_station",
    "building": "yes",
    "building:roof": "tile",
    "name": "Feuerwehr Wiesendangen",
    "id": "way/115963467"
  },
  "geometry": {
    "type": "Polygon",
    "coordinates": [
      [
        [
          8.7885716,
          47.5216269
        ],
        [
          8.7885663,
          47.5215646
        ],
        [
          8.7885281,
          47.5215661
        ],
        [
          8.788521,
          47.5214816
        ],
        [
          8.7888346,
          47.5214695
        ],
        [
          8.7888452,
          47.5215935
        ],
        [
          8.7886781,
          47.5216
        ],
        [
          8.78868,
          47.5216227
        ],
        [
          8.7885716,
          47.5216269
        ]
      ]
    ]
  }
},
{
  "type": "Feature",
  "id": "way/117708071",
  "properties": {
    "addr:housenumber": "11",
    "addr:street": "Auwiesenstrasse",
    "amenity": "fire_station",
    "building": "yes",
    "building:roof": "flat",
    "name": "Feuerwehr Elsau-Schlatt",
    "id": "way/117708071"
  },
  "geometry": {
    "type": "Polygon",
    "coordinates": [
      [
        [
          8.7947737,
          47.5007157
        ],
        [
          8.7946726,
          47.5006287
        ],
        [
          8.7948408,
          47.5005394
        ],
        [
          8.794839,
          47.5005379
        ],
        [
          8.7952405,
          47.5003249
        ],
        [
          8.7952189,
          47.5003063
        ],
        [
          8.7952658,
          47.5002815
        ],
        [
          8.7953904,
          47.5003887
        ],
        [
          8.7947737,
          47.5007157
        ]
      ]
    ]
  }
},
{
  "type": "Feature",
  "id": "way/122256010",
  "properties": {
    "addr:city": "Illnau",
    "addr:country": "CH",
    "addr:housenumber": "23",
    "addr:postcode": "8308",
    "addr:street": "Länggstrasse",
    "amenity": "fire_station",
    "building": "yes",
    "name": "Feuerwehr Illnau-Effretikon",
    "source": "Yahoo",
    "id": "way/122256010"
  },
  "geometry": {
    "type": "Polygon",
    "coordinates": [
      [
        [
          8.7255352,
          47.4050686
        ],
        [
          8.7256051,
          47.4049041
        ],
        [
          8.7258074,
          47.4049434
        ],
        [
          8.7257376,
          47.405108
        ],
        [
          8.7255992,
          47.4050811
        ],
        [
          8.7255352,
          47.4050686
        ]
      ]
    ]
  }
},
{
  "type": "Feature",
  "id": "way/126047718",
  "properties": {
    "addr:city": "Watt",
    "addr:housenumber": "134",
    "addr:postcode": "8105",
    "addr:street": "Dorfstrasse",
    "amenity": "fire_station",
    "building": "yes",
    "name": "Depot Watt",
    "opening_hours": "24/7",
    "operator": "Feuerwehr Regensdorf",
    "website": "https://lodur-zh.ch/regensdorf/",
    "id": "way/126047718"
  },
  "geometry": {
    "type": "Polygon",
    "coordinates": [
      [
        [
          8.4812175,
          47.4423737
        ],
        [
          8.4810903,
          47.4424244
        ],
        [
          8.4810154,
          47.4423383
        ],
        [
          8.4812814,
          47.4422324
        ],
        [
          8.4813563,
          47.4423185
        ],
        [
          8.4813429,
          47.4423238
        ],
        [
          8.4812175,
          47.4423737
        ]
      ]
    ]
  }
},
{
  "type": "Feature",
  "id": "way/135080663",
  "properties": {
    "addr:city": "Weiningen (ZH)",
    "addr:housenumber": "8",
    "addr:postcode": "8104",
    "addr:street": "Bachstrasse",
    "amenity": "fire_station",
    "building": "yes",
    "name": "Feuerwehr Weiningen",
    "id": "way/135080663"
  },
  "geometry": {
    "type": "Polygon",
    "coordinates": [
      [
        [
          8.4349652,
          47.4206781
        ],
        [
          8.4350601,
          47.4207575
        ],
        [
          8.4350148,
          47.4207814
        ],
        [
          8.4347946,
          47.4209035
        ],
        [
          8.4347003,
          47.4208219
        ],
        [
          8.4349207,
          47.4207017
        ],
        [
          8.4349652,
          47.4206781
        ]
      ]
    ]
  }
},
{
  "type": "Feature",
  "id": "way/135309646",
  "properties": {
    "addr:city": "Seuzach",
    "addr:country": "CH",
    "addr:housenumber": "5",
    "addr:postcode": "8472",
    "addr:street": "Strehlgasse",
    "amenity": "fire_station",
    "building": "yes",
    "name": "Feuerwehr Seuzach",
    "id": "way/135309646"
  },
  "geometry": {
    "type": "Polygon",
    "coordinates": [
      [
        [
          8.7300201,
          47.5371498
        ],
        [
          8.7303377,
          47.5371531
        ],
        [
          8.7303324,
          47.5372722
        ],
        [
          8.7303311,
          47.537302
        ],
        [
          8.7304159,
          47.5373038
        ],
        [
          8.7304134,
          47.5375197
        ],
        [
          8.7303282,
          47.5375196
        ],
        [
          8.7303294,
          47.5374219
        ],
        [
          8.7300646,
          47.5374464
        ],
        [
          8.7300201,
          47.5371498
        ]
      ]
    ]
  }
},
{
  "type": "Feature",
  "id": "way/137879362",
  "properties": {
    "addr:city": "Erlenbach",
    "addr:housenumber": "32",
    "addr:postcode": "8703",
    "addr:street": "Schulhausstrasse",
    "amenity": "fire_station",
    "building": "yes",
    "name": "Feuerwehr Erlenbach",
    "id": "way/137879362"
  },
  "geometry": {
    "type": "Polygon",
    "coordinates": [
      [
        [
          8.5929925,
          47.3026316
        ],
        [
          8.5930923,
          47.3024939
        ],
        [
          8.5932703,
          47.3025532
        ],
        [
          8.5932516,
          47.302579
        ],
        [
          8.5933245,
          47.3026033
        ],
        [
          8.5932434,
          47.3027152
        ],
        [
          8.5929925,
          47.3026316
        ]
      ]
    ]
  }
},
{
  "type": "Feature",
  "id": "way/144717741",
  "properties": {
    "addr:city": "Dietlikon",
    "addr:housenumber": "30",
    "addr:postcode": "8305",
    "addr:street": "Hofwiesenstrasse",
    "amenity": "fire_station",
    "building": "yes",
    "name": "Feuerwehr Dietlikon",
    "source": "Bing",
    "id": "way/144717741"
  },
  "geometry": {
    "type": "Polygon",
    "coordinates": [
      [
        [
          8.6206059,
          47.4239001
        ],
        [
          8.6205265,
          47.4238848
        ],
        [
          8.6207798,
          47.423286
        ],
        [
          8.6210912,
          47.4233463
        ],
        [
          8.6208413,
          47.4239371
        ],
        [
          8.6208062,
          47.4239303
        ],
        [
          8.6206807,
          47.4242269
        ],
        [
          8.6204838,
          47.4241887
        ],
        [
          8.6206059,
          47.4239001
        ]
      ]
    ]
  }
},
{
  "type": "Feature",
  "id": "way/144916814",
  "properties": {
    "addr:city": "Männedorf",
    "addr:housenumber": "52",
    "addr:postcode": "8708",
    "addr:street": "Herweg",
    "amenity": "fire_station",
    "building": "yes",
    "name": "Löschzug",
    "id": "way/144916814"
  },
  "geometry": {
    "type": "Polygon",
    "coordinates": [
      [
        [
          8.706585,
          47.2498208
        ],
        [
          8.7065768,
          47.24979
        ],
        [
          8.70671,
          47.2497737
        ],
        [
          8.7067182,
          47.2498045
        ],
        [
          8.706585,
          47.2498208
        ]
      ]
    ]
  }
},
{
  "type": "Feature",
  "id": "way/151296092",
  "properties": {
    "addr:city": "Feuerthalen",
    "addr:housenumber": "4",
    "addr:postcode": "8245",
    "addr:street": "Schützenstrasse",
    "amenity": "fire_station",
    "building": "yes",
    "name": "Feuerwehr Ausseramt - Depot Feuerthalen",
    "id": "way/151296092"
  },
  "geometry": {
    "type": "Polygon",
    "coordinates": [
      [
        [
          8.6438206,
          47.692511
        ],
        [
          8.6440759,
          47.692413
        ],
        [
          8.6441524,
          47.6925033
        ],
        [
          8.6438971,
          47.6926013
        ],
        [
          8.6438206,
          47.692511
        ]
      ]
    ]
  }
},
{
  "type": "Feature",
  "id": "way/152220187",
  "properties": {
    "addr:city": "Glattbrugg",
    "addr:housenumber": "27",
    "addr:postcode": "8152",
    "addr:street": "Oberhauserstrasse",
    "amenity": "fire_station",
    "building": "yes",
    "building:roof:shape": "flat",
    "name": "Feuerwehr Opfikon",
    "operator": "Stadt Opfikon",
    "source": "bing",
    "website": "https://feuerwehr-opfikon.ch/",
    "id": "way/152220187"
  },
  "geometry": {
    "type": "Polygon",
    "coordinates": [
      [
        [
          8.5672805,
          47.4320741
        ],
        [
          8.5670335,
          47.4325047
        ],
        [
          8.5667928,
          47.4324415
        ],
        [
          8.5668018,
          47.4324257
        ],
        [
          8.5667096,
          47.4324016
        ],
        [
          8.5669475,
          47.4319867
        ],
        [
          8.5670423,
          47.4320116
        ],
        [
          8.5672138,
          47.4320566
        ],
        [
          8.5672805,
          47.4320741
        ]
      ]
    ]
  }
},
{
  "type": "Feature",
  "id": "way/152254116",
  "properties": {
    "addr:city": "Herrliberg",
    "addr:housenumber": "43",
    "addr:postcode": "8704",
    "addr:street": "Rennweg",
    "amenity": "fire_station",
    "building": "yes",
    "name": "Feuerwehr Meilen - Depot Herrliberg",
    "id": "way/152254116"
  },
  "geometry": {
    "type": "Polygon",
    "coordinates": [
      [
        [
          8.6158712,
          47.2851798
        ],
        [
          8.6158483,
          47.2851867
        ],
        [
          8.6157933,
          47.2851034
        ],
        [
          8.6157712,
          47.2850648
        ],
        [
          8.616051,
          47.2849776
        ],
        [
          8.6160787,
          47.2849825
        ],
        [
          8.6161159,
          47.2850298
        ],
        [
          8.616045,
          47.2850509
        ],
        [
          8.6160871,
          47.2851153
        ],
        [
          8.6158712,
          47.2851798
        ]
      ]
    ]
  }
},
{
  "type": "Feature",
  "id": "way/155993988",
  "properties": {
    "addr:city": "Dietikon",
    "addr:housenumber": "24",
    "addr:postcode": "8953",
    "addr:street": "Bremgartnerstrasse",
    "amenity": "fire_station",
    "building": "yes",
    "name": "Feuerwehr Dietikon",
    "operator": "Stadt Dietikon",
    "id": "way/155993988"
  },
  "geometry": {
    "type": "Polygon",
    "coordinates": [
      [
        [
          8.4001004,
          47.4030055
        ],
        [
          8.3999556,
          47.4028676
        ],
        [
          8.4002479,
          47.4027241
        ],
        [
          8.4003957,
          47.4028678
        ],
        [
          8.4001004,
          47.4030055
        ]
      ]
    ]
  }
},
{
  "type": "Feature",
  "id": "way/159971535",
  "properties": {
    "addr:city": "Wallisellen",
    "addr:housenumber": "11",
    "addr:postcode": "8304",
    "addr:street": "Industriestrasse",
    "amenity": "fire_station",
    "building": "yes",
    "name": "Stützpunktfeuerwehr Wallisellen",
    "operator": "Gemeinde Wallisellen",
    "id": "way/159971535"
  },
  "geometry": {
    "type": "Polygon",
    "coordinates": [
      [
        [
          8.5826056,
          47.4124231
        ],
        [
          8.5828759,
          47.4124186
        ],
        [
          8.5828905,
          47.4129765
        ],
        [
          8.5837018,
          47.4129938
        ],
        [
          8.5838675,
          47.413196
        ],
        [
          8.5824066,
          47.4131574
        ],
        [
          8.582419,
          47.4129617
        ],
        [
          8.5826101,
          47.4129673
        ],
        [
          8.5826056,
          47.4124231
        ]
      ]
    ]
  }
},
{
  "type": "Feature",
  "id": "way/188782340",
  "properties": {
    "addr:city": "Unteregngstringen",
    "addr:housenumber": "30",
    "addr:postcode": "8103",
    "addr:street": "Dorfstrasse",
    "amenity": "fire_station",
    "building": "yes",
    "name": "Feuerwehr Engstringen",
    "operator": "Gemeinden Ober- & Unterengstringen",
    "source": "WMS Amtliche Vermessung (AVWMS) (OGD)",
    "website": "https://www.feuerwehr-engstringen.ch/",
    "id": "way/188782340"
  },
  "geometry": {
    "type": "Polygon",
    "coordinates": [
      [
        [
          8.4455213,
          47.4118464
        ],
        [
          8.445516,
          47.4118092
        ],
        [
          8.4455322,
          47.4118082
        ],
        [
          8.4455168,
          47.4117002
        ],
        [
          8.4455442,
          47.4116984
        ],
        [
          8.4455254,
          47.4115666
        ],
        [
          8.4457015,
          47.4115551
        ],
        [
          8.4457242,
          47.4117145
        ],
        [
          8.445663,
          47.4117185
        ],
        [
          8.4456658,
          47.4117382
        ],
        [
          8.4456841,
          47.411737
        ],
        [
          8.4456981,
          47.4118349
        ],
        [
          8.4455213,
          47.4118464
        ]
      ]
    ]
  }
},
{
  "type": "Feature",
  "id": "way/194305659",
  "properties": {
    "amenity": "fire_station",
    "building": "yes",
    "name": "Feuerwehr Wädenswil",
    "operator": "Stadt Wädenswil",
    "id": "way/194305659"
  },
  "geometry": {
    "type": "Polygon",
    "coordinates": [
      [
        [
          8.6694065,
          47.2327394
        ],
        [
          8.6693877,
          47.2327048
        ],
        [
          8.6693851,
          47.2326665
        ],
        [
          8.6695004,
          47.2325828
        ],
        [
          8.6695911,
          47.2325302
        ],
        [
          8.6697493,
          47.2324774
        ],
        [
          8.6699344,
          47.2324319
        ],
        [
          8.6704873,
          47.2323059
        ],
        [
          8.6706183,
          47.2324701
        ],
        [
          8.6695267,
          47.2327433
        ],
        [
          8.6695133,
          47.2327123
        ],
        [
          8.6694065,
          47.2327394
        ]
      ]
    ]
  }
},
{
  "type": "Feature",
  "id": "way/195802705",
  "properties": {
    "addr:city": "Meilen",
    "addr:place": "Toggwil",
    "addr:postcode": "8706",
    "amenity": "fire_station",
    "building": "yes",
    "name": "Depot Toggwil",
    "operator": "Stützpunktfeuerwehr Meilen",
    "id": "way/195802705"
  },
  "geometry": {
    "type": "Polygon",
    "coordinates": [
      [
        [
          8.6531983,
          47.2883378
        ],
        [
          8.6531778,
          47.2882618
        ],
        [
          8.6532372,
          47.2882545
        ],
        [
          8.6532576,
          47.2883304
        ],
        [
          8.6531983,
          47.2883378
        ]
      ]
    ]
  }
},
{
  "type": "Feature",
  "id": "way/196026097",
  "properties": {
    "addr:city": "Rikon im Tösstal",
    "addr:housenumber": "10",
    "addr:postcode": "8486",
    "addr:street": "Burgstrasse",
    "amenity": "fire_station",
    "building": "yes",
    "id": "way/196026097"
  },
  "geometry": {
    "type": "Polygon",
    "coordinates": [
      [
        [
          8.8107101,
          47.4563176
        ],
        [
          8.8107402,
          47.4562573
        ],
        [
          8.8108328,
          47.4562784
        ],
        [
          8.8108027,
          47.4563388
        ],
        [
          8.8107101,
          47.4563176
        ]
      ]
    ]
  }
},
{
  "type": "Feature",
  "id": "way/199007574",
  "properties": {
    "addr:city": "Niederweningen",
    "addr:country": "CH",
    "addr:housenumber": "2",
    "addr:postcode": "8166",
    "addr:street": "Im Mitteldorf",
    "amenity": "fire_station",
    "building": "public",
    "name": "Feuerwehr Wehntal - Depot Niederweningen",
    "id": "way/199007574"
  },
  "geometry": {
    "type": "Polygon",
    "coordinates": [
      [
        [
          8.37727,
          47.5060285
        ],
        [
          8.3770823,
          47.5058877
        ],
        [
          8.3771914,
          47.5058213
        ],
        [
          8.3772597,
          47.5058725
        ],
        [
          8.3774725,
          47.5057431
        ],
        [
          8.3776181,
          47.5058523
        ],
        [
          8.3773629,
          47.5060075
        ],
        [
          8.3773368,
          47.5059879
        ],
        [
          8.37727,
          47.5060285
        ]
      ]
    ]
  }
},
{
  "type": "Feature",
  "id": "way/202055788",
  "properties": {
    "addr:city": "Hittnau",
    "addr:housenumber": "48",
    "addr:postcode": "8335",
    "addr:street": "Jakob Stutz-Strasse",
    "amenity": "fire_station",
    "building": "yes",
    "name": "Feuerwehr Hittnau",
    "id": "way/202055788"
  },
  "geometry": {
    "type": "Polygon",
    "coordinates": [
      [
        [
          8.8246133,
          47.3665439
        ],
        [
          8.8244099,
          47.3665061
        ],
        [
          8.8246654,
          47.3658818
        ],
        [
          8.824873,
          47.3659215
        ],
        [
          8.8246133,
          47.3665439
        ]
      ]
    ]
  }
},
{
  "type": "Feature",
  "id": "way/204034408",
  "properties": {
    "addr:city": "Zumikon",
    "addr:housenumber": "5",
    "addr:postcode": "8126",
    "addr:street": "Mettelacher",
    "amenity": "fire_station",
    "building": "yes",
    "name": "Feuerwehr Zumikon",
    "id": "way/204034408"
  },
  "geometry": {
    "type": "Polygon",
    "coordinates": [
      [
        [
          8.6259231,
          47.3319332
        ],
        [
          8.6258058,
          47.3318573
        ],
        [
          8.6261364,
          47.3316224
        ],
        [
          8.6262537,
          47.3316982
        ],
        [
          8.6259231,
          47.3319332
        ]
      ]
    ]
  }
},
{
  "type": "Feature",
  "id": "way/212379418",
  "properties": {
    "addr:city": "Zürich",
    "addr:country": "CH",
    "addr:housenumber": "20",
    "addr:postcode": "8003",
    "addr:street": "Manessestrasse",
    "amenity": "fire_station",
    "building": "yes",
    "name": "Berufsfeuerwehr Zürich",
    "operator": "Stadt Zürich",
    "id": "way/212379418"
  },
  "geometry": {
    "type": "Polygon",
    "coordinates": [
      [
        [
          8.524995,
          47.3691345
        ],
        [
          8.525043,
          47.3691605
        ],
        [
          8.5250518,
          47.3691652
        ],
        [
          8.5250883,
          47.3691849
        ],
        [
          8.5251303,
          47.3692076
        ],
        [
          8.5251721,
          47.3692302
        ],
        [
          8.5251941,
          47.3692421
        ],
        [
          8.5252121,
          47.3692518
        ],
        [
          8.5252559,
          47.3692755
        ],
        [
          8.52529,
          47.3692939
        ],
        [
          8.5253306,
          47.3693159
        ],
        [
          8.5253716,
          47.369338
        ],
        [
          8.5253759,
          47.3693403
        ],
        [
          8.5254624,
          47.3693871
        ],
        [
          8.5253353,
          47.3694951
        ],
        [
          8.5252926,
          47.369472
        ],
        [
          8.5252391,
          47.3694431
        ],
        [
          8.525199,
          47.3694214
        ],
        [
          8.5251937,
          47.3694185
        ],
        [
          8.5251042,
          47.3694945
        ],
        [
          8.5250649,
          47.3694733
        ],
        [
          8.525033,
          47.369456
        ],
        [
          8.5249924,
          47.369434
        ],
        [
          8.5249529,
          47.3694126
        ],
        [
          8.5249099,
          47.3693893
        ],
        [
          8.5248671,
          47.3693661
        ],
        [
          8.5248342,
          47.3693483
        ],
        [
          8.5248224,
          47.3693419
        ],
        [
          8.5249113,
          47.3692664
        ],
        [
          8.5248675,
          47.3692428
        ],
        [
          8.524995,
          47.3691345
        ]
      ]
    ]
  }
},
{
  "type": "Feature",
  "id": "way/224779704",
  "properties": {
    "addr:city": "Hedingen",
    "addr:country": "CH",
    "addr:housenumber": "26",
    "addr:postcode": "8908",
    "addr:street": "Zwillikerstrasse",
    "amenity": "fire_station",
    "building": "yes",
    "building:levels": "3",
    "name": "Feuerwehr Hedingen",
    "id": "way/224779704"
  },
  "geometry": {
    "type": "Polygon",
    "coordinates": [
      [
        [
          8.4464104,
          47.2962052
        ],
        [
          8.4464934,
          47.2961982
        ],
        [
          8.4464941,
          47.2962019
        ],
        [
          8.4465017,
          47.2962012
        ],
        [
          8.4465029,
          47.2962076
        ],
        [
          8.4464952,
          47.2962082
        ],
        [
          8.4465135,
          47.2963078
        ],
        [
          8.4465261,
          47.2963067
        ],
        [
          8.4465548,
          47.2964633
        ],
        [
          8.4465418,
          47.2964644
        ],
        [
          8.44655,
          47.2965092
        ],
        [
          8.4464675,
          47.2965162
        ],
        [
          8.4464104,
          47.2962052
        ]
      ]
    ]
  }
},
{
  "type": "Feature",
  "id": "way/226338375",
  "properties": {
    "addr:housenumber": "185",
    "addr:street": "Tösstalstrasse",
    "amenity": "fire_station",
    "building": "yes",
    "name": "Feuerwehr Fischenthal",
    "id": "way/226338375"
  },
  "geometry": {
    "type": "Polygon",
    "coordinates": [
      [
        [
          8.9291101,
          47.3417698
        ],
        [
          8.9288889,
          47.3415133
        ],
        [
          8.9291008,
          47.3414293
        ],
        [
          8.929322,
          47.3416858
        ],
        [
          8.9291101,
          47.3417698
        ]
      ]
    ]
  }
},
{
  "type": "Feature",
  "id": "way/240564745",
  "properties": {
    "addr:city": "Pfungen",
    "addr:housenumber": "2",
    "addr:postcode": "8422",
    "addr:street": "Dorfstrasse",
    "amenity": "fire_station",
    "building": "yes",
    "id": "way/240564745"
  },
  "geometry": {
    "type": "Polygon",
    "coordinates": [
      [
        [
          8.6431462,
          47.5174246
        ],
        [
          8.6432639,
          47.5172515
        ],
        [
          8.6440276,
          47.5174885
        ],
        [
          8.6439098,
          47.5176616
        ],
        [
          8.6435114,
          47.5175379
        ],
        [
          8.6431462,
          47.5174246
        ]
      ]
    ]
  }
},
{
  "type": "Feature",
  "id": "way/242107296",
  "properties": {
    "addr:city": "Flurlingen",
    "addr:housenumber": "2",
    "addr:postcode": "8247",
    "addr:street": "Lächenstrasse",
    "amenity": "fire_station",
    "building": "yes",
    "name": "Feuerwehr Ausseramt - Depot Flurlingen",
    "id": "way/242107296"
  },
  "geometry": {
    "type": "Polygon",
    "coordinates": [
      [
        [
          8.6277032,
          47.6825856
        ],
        [
          8.6274457,
          47.6825242
        ],
        [
          8.6274564,
          47.6825008
        ],
        [
          8.6273894,
          47.6824836
        ],
        [
          8.6274269,
          47.6824132
        ],
        [
          8.6277541,
          47.6824963
        ],
        [
          8.6277032,
          47.6825856
        ]
      ]
    ]
  }
},
{
  "type": "Feature",
  "id": "way/250881492",
  "properties": {
    "addr:housenumber": "2",
    "addr:street": "Dorfstrasse",
    "amenity": "fire_station",
    "building": "yes",
    "name": "Feuerwehr Bauma - Depot Sternenberg",
    "roof:shape": "gabled",
    "id": "way/250881492"
  },
  "geometry": {
    "type": "Polygon",
    "coordinates": [
      [
        [
          8.9154108,
          47.3851841
        ],
        [
          8.9154212,
          47.3850784
        ],
        [
          8.9154338,
          47.385079
        ],
        [
          8.9154406,
          47.3850101
        ],
        [
          8.9155578,
          47.3850154
        ],
        [
          8.9155404,
          47.3851934
        ],
        [
          8.9155123,
          47.3851922
        ],
        [
          8.9155069,
          47.3852476
        ],
        [
          8.9153785,
          47.3852418
        ],
        [
          8.9153842,
          47.3851829
        ],
        [
          8.9154066,
          47.3851839
        ],
        [
          8.9154108,
          47.3851841
        ]
      ]
    ]
  }
},
{
  "type": "Feature",
  "id": "way/252140184",
  "properties": {
    "addr:city": "Hinwil",
    "addr:housenumber": "5",
    "addr:postcode": "8340",
    "addr:street": "Eisweiherstrasse",
    "amenity": "fire_station",
    "building": "yes",
    "name": "Stützpunkt Feuerwehr Hinwil",
    "phone": "+41 44 937 20 24",
    "website": "http://www.feuerwehr-hinwil.ch/",
    "id": "way/252140184"
  },
  "geometry": {
    "type": "Polygon",
    "coordinates": [
      [
        [
          8.834128,
          47.3070142
        ],
        [
          8.8338997,
          47.3067782
        ],
        [
          8.8341108,
          47.3066843
        ],
        [
          8.8341532,
          47.306728
        ],
        [
          8.8344521,
          47.306595
        ],
        [
          8.8346706,
          47.3068208
        ],
        [
          8.8343598,
          47.3069591
        ],
        [
          8.8343273,
          47.3069255
        ],
        [
          8.834128,
          47.3070142
        ]
      ]
    ]
  }
},
{
  "type": "Feature",
  "id": "way/253470336",
  "properties": {
    "amenity": "fire_station",
    "building": "yes",
    "id": "way/253470336"
  },
  "geometry": {
    "type": "Polygon",
    "coordinates": [
      [
        [
          8.8076275,
          47.3983309
        ],
        [
          8.807706,
          47.3982686
        ],
        [
          8.8077886,
          47.3983163
        ],
        [
          8.8077101,
          47.3983785
        ],
        [
          8.8076275,
          47.3983309
        ]
      ]
    ]
  }
},
{
  "type": "Feature",
  "id": "way/255026614",
  "properties": {
    "addr:city": "Wetzikon",
    "addr:country": "CH",
    "addr:housenumber": "5",
    "addr:postcode": "8620",
    "addr:street": "Farbstrasse",
    "amenity": "fire_station",
    "building": "yes",
    "building:levels": "3",
    "name": "Feuerwehr Wetzikon-Seegräben",
    "operator": "Feuerwehr Wetzikon-Seegräben",
    "roof:levels": "1",
    "roof:shape": "gabled",
    "website": "https://www.feuerwehr.ws/",
    "id": "way/255026614"
  },
  "geometry": {
    "type": "Polygon",
    "coordinates": [
      [
        [
          8.7958673,
          47.3261205
        ],
        [
          8.795849,
          47.3262685
        ],
        [
          8.7955782,
          47.3262532
        ],
        [
          8.7956146,
          47.3259573
        ],
        [
          8.7958855,
          47.3259726
        ],
        [
          8.7958673,
          47.3261205
        ]
      ]
    ]
  }
},
{
  "type": "Feature",
  "id": "way/259472204",
  "properties": {
    "addr:city": "Wald (ZH)",
    "addr:housenumber": "36",
    "addr:postcode": "8636",
    "addr:street": "Riedstrasse",
    "amenity": "fire_station",
    "building": "yes",
    "name": "ehem. Aussenlöschposten Ried",
    "operator": "Gemeinde Wald",
    "id": "way/259472204"
  },
  "geometry": {
    "type": "Polygon",
    "coordinates": [
      [
        [
          8.9123827,
          47.3083962
        ],
        [
          8.9124599,
          47.3083957
        ],
        [
          8.9124612,
          47.3084917
        ],
        [
          8.912384,
          47.3084922
        ],
        [
          8.9123827,
          47.3083962
        ]
      ]
    ]
  }
},
{
  "type": "Feature",
  "id": "way/263429427",
  "properties": {
    "addr:city": "Bubikon",
    "addr:country": "CH",
    "addr:housenumber": "8",
    "addr:postcode": "8608",
    "addr:street": "Alte Schulstrasse",
    "amenity": "fire_station",
    "building": "yes",
    "name": "Feuerwehr Bubikon",
    "website": "https://feuerwehr-bubikon.ch/",
    "id": "way/263429427"
  },
  "geometry": {
    "type": "Polygon",
    "coordinates": [
      [
        [
          8.8172752,
          47.2682764
        ],
        [
          8.8172279,
          47.2683552
        ],
        [
          8.8171987,
          47.2684038
        ],
        [
          8.8171661,
          47.268458
        ],
        [
          8.8169672,
          47.268403
        ],
        [
          8.8170762,
          47.2682214
        ],
        [
          8.8172555,
          47.2682709
        ],
        [
          8.8172752,
          47.2682764
        ]
      ]
    ]
  }
},
{
  "type": "Feature",
  "id": "way/272117671",
  "properties": {
    "addr:city": "Bäretswil",
    "addr:country": "CH",
    "addr:housenumber": "5",
    "addr:postcode": "8344",
    "addr:street": "Höhenstrasse",
    "amenity": "fire_station",
    "building": "industrial",
    "name": "Feuerwehr Bäretswil",
    "id": "way/272117671"
  },
  "geometry": {
    "type": "Polygon",
    "coordinates": [
      [
        [
          8.8583452,
          47.333364
        ],
        [
          8.8585534,
          47.3333248
        ],
        [
          8.8586618,
          47.3335896
        ],
        [
          8.8586886,
          47.3336513
        ],
        [
          8.8584801,
          47.3336908
        ],
        [
          8.8584611,
          47.3336454
        ],
        [
          8.8582593,
          47.3336842
        ],
        [
          8.8582243,
          47.3336005
        ],
        [
          8.8583773,
          47.3335711
        ],
        [
          8.8583951,
          47.3336135
        ],
        [
          8.8584456,
          47.3336038
        ],
        [
          8.8583452,
          47.333364
        ]
      ]
    ]
  }
},
{
  "type": "Feature",
  "id": "way/274902818",
  "properties": {
    "addr:city": "Ottenbach",
    "addr:housenumber": "2",
    "addr:postcode": "8913",
    "addr:street": "Dorfplatz",
    "amenity": "fire_station",
    "building": "yes",
    "name": "Feuerwehr Ottenbach",
    "id": "way/274902818"
  },
  "geometry": {
    "type": "Polygon",
    "coordinates": [
      [
        [
          8.4043989,
          47.2814937
        ],
        [
          8.4044402,
          47.2813312
        ],
        [
          8.4045439,
          47.2813433
        ],
        [
          8.4045491,
          47.2813227
        ],
        [
          8.4047654,
          47.281348
        ],
        [
          8.4047564,
          47.2813834
        ],
        [
          8.4047966,
          47.2813881
        ],
        [
          8.4047681,
          47.2815
        ],
        [
          8.4046896,
          47.2814908
        ],
        [
          8.4046715,
          47.2815621
        ],
        [
          8.4045855,
          47.2815521
        ],
        [
          8.4045945,
          47.2815166
        ],
        [
          8.4043989,
          47.2814937
        ]
      ]
    ]
  }
},
{
  "type": "Feature",
  "id": "way/292183488",
  "properties": {
    "amenity": "fire_station",
    "building": "yes",
    "name": "Feuerwehr Wald",
    "id": "way/292183488"
  },
  "geometry": {
    "type": "Polygon",
    "coordinates": [
      [
        [
          8.9146298,
          47.2696424
        ],
        [
          8.9144534,
          47.2695165
        ],
        [
          8.9148351,
          47.2692703
        ],
        [
          8.9150114,
          47.2693962
        ],
        [
          8.9146298,
          47.2696424
        ]
      ]
    ]
  }
},
{
  "type": "Feature",
  "id": "way/295033726",
  "properties": {
    "addr:city": "Hirzel",
    "addr:postcode": "8816",
    "addr:street": "Vorderi Siten",
    "amenity": "fire_station",
    "building": "yes",
    "name": "Feuerwehr Horgen - Depot Hirzel",
    "id": "way/295033726"
  },
  "geometry": {
    "type": "Polygon",
    "coordinates": [
      [
        [
          8.6093907,
          47.2181421
        ],
        [
          8.6096268,
          47.21794
        ],
        [
          8.6097706,
          47.2180174
        ],
        [
          8.6096863,
          47.2180911
        ],
        [
          8.6099265,
          47.2182256
        ],
        [
          8.6098273,
          47.21831
        ],
        [
          8.6096648,
          47.2182212
        ],
        [
          8.6096469,
          47.2182391
        ],
        [
          8.6095622,
          47.2181941
        ],
        [
          8.6095367,
          47.218215
        ],
        [
          8.6093907,
          47.2181421
        ]
      ]
    ]
  }
},
{
  "type": "Feature",
  "id": "way/296898634",
  "properties": {
    "addr:city": "Ossingen",
    "addr:housenumber": "1",
    "addr:postcode": "8475",
    "addr:street": "Neuwiesstrasse",
    "amenity": "fire_station",
    "building": "yes",
    "building:levels": "1",
    "name": "Stützpunktfeuerwehr Weinland - Depot Ossingen",
    "roof:levels": "1",
    "roof:shape": "gabled",
    "id": "way/296898634"
  },
  "geometry": {
    "type": "Polygon",
    "coordinates": [
      [
        [
          8.7350839,
          47.6123506
        ],
        [
          8.7351083,
          47.6122012
        ],
        [
          8.7355933,
          47.6122371
        ],
        [
          8.7355689,
          47.6123865
        ],
        [
          8.7350839,
          47.6123506
        ]
      ]
    ]
  }
},
{
  "type": "Feature",
  "id": "way/297976439",
  "properties": {
    "amenity": "fire_station",
    "building": "yes",
    "name": "Feuerwehr Elsau-Schlatt",
    "note": "Notiz: Für Schutz & Rettung u.a einsatzrelevant.",
    "id": "way/297976439"
  },
  "geometry": {
    "type": "Polygon",
    "coordinates": [
      [
        [
          8.8284738,
          47.4698138
        ],
        [
          8.8285806,
          47.4696444
        ],
        [
          8.8287014,
          47.4696791
        ],
        [
          8.828729,
          47.4696353
        ],
        [
          8.828938,
          47.4696955
        ],
        [
          8.8289288,
          47.4697102
        ],
        [
          8.8289809,
          47.4697252
        ],
        [
          8.8289266,
          47.4698114
        ],
        [
          8.8288744,
          47.4697963
        ],
        [
          8.828864,
          47.4698128
        ],
        [
          8.8287067,
          47.4697675
        ],
        [
          8.8286463,
          47.4698635
        ],
        [
          8.8284738,
          47.4698138
        ]
      ]
    ]
  }
},
{
  "type": "Feature",
  "id": "way/373675370",
  "properties": {
    "addr:city": "Embrach",
    "addr:housenumber": "10",
    "addr:postcode": "8424",
    "addr:street": "Nordstrasse",
    "amenity": "fire_station",
    "building": "yes",
    "name": "Feuerwehr Embrachertal",
    "website": "https://feuerwehr-embrachertal.ch",
    "id": "way/373675370"
  },
  "geometry": {
    "type": "Polygon",
    "coordinates": [
      [
        [
          8.5929593,
          47.5226667
        ],
        [
          8.5929586,
          47.5226291
        ],
        [
          8.5929111,
          47.5226295
        ],
        [
          8.5929055,
          47.5223286
        ],
        [
          8.5932606,
          47.5223256
        ],
        [
          8.5932662,
          47.5226088
        ],
        [
          8.593205,
          47.5226095
        ],
        [
          8.593206,
          47.5226646
        ],
        [
          8.5929593,
          47.5226667
        ]
      ]
    ]
  }
},
{
  "type": "Feature",
  "id": "way/419356316",
  "properties": {
    "addr:housenumber": "1a",
    "addr:street": "Hinterdorfstrasse",
    "amenity": "fire_station",
    "building": "yes",
    "building:roof": "tile",
    "name": "Feuerwehr Zell",
    "id": "way/419356316"
  },
  "geometry": {
    "type": "Polygon",
    "coordinates": [
      [
        [
          8.8220102,
          47.4481867
        ],
        [
          8.8220152,
          47.4482971
        ],
        [
          8.822017,
          47.448335
        ],
        [
          8.8218991,
          47.4483374
        ],
        [
          8.821893,
          47.4482042
        ],
        [
          8.8219592,
          47.4482029
        ],
        [
          8.8219585,
          47.4481877
        ],
        [
          8.8220102,
          47.4481867
        ]
      ]
    ]
  }
},
{
  "type": "Feature",
  "id": "way/501080386",
  "properties": {
    "addr:city": "Volketswil",
    "addr:country": "CH",
    "addr:housenumber": "12",
    "addr:postcode": "8604",
    "addr:street": "Hegnauerstrasse",
    "amenity": "fire_station",
    "building": "yes",
    "name": "Feuerwehr Volketswil",
    "website": "https://www.feuerwehr-volketswil.ch/",
    "id": "way/501080386"
  },
  "geometry": {
    "type": "Polygon",
    "coordinates": [
      [
        [
          8.6766089,
          47.3926016
        ],
        [
          8.6764252,
          47.3924626
        ],
        [
          8.6764415,
          47.3924527
        ],
        [
          8.6766551,
          47.3923217
        ],
        [
          8.6771565,
          47.3927047
        ],
        [
          8.6769498,
          47.3928653
        ],
        [
          8.6766089,
          47.3926016
        ]
      ]
    ]
  }
},
{
  "type": "Feature",
  "id": "way/665102197",
  "properties": {
    "amenity": "fire_station",
    "building": "yes",
    "name": "Flughafenfeuerwehr, Hauptwache",
    "id": "way/665102197"
  },
  "geometry": {
    "type": "Polygon",
    "coordinates": [
      [
        [
          8.5525828,
          47.4451701
        ],
        [
          8.5529601,
          47.4452909
        ],
        [
          8.552541,
          47.4458985
        ],
        [
          8.5521622,
          47.4457784
        ],
        [
          8.5525828,
          47.4451701
        ]
      ]
    ]
  }
},
{
  "type": "Feature",
  "id": "way/916580212",
  "properties": {
    "addr:city": "Hütten",
    "addr:housenumber": "15",
    "addr:postcode": "8825",
    "addr:street": "Vordere Hanfländer",
    "amenity": "fire_station",
    "building": "yes",
    "name": "Feuerwehr Wädenswil - Depot Hütten",
    "id": "way/916580212"
  },
  "geometry": {
    "type": "Polygon",
    "coordinates": [
      [
        [
          8.6644032,
          47.1749586
        ],
        [
          8.6644392,
          47.1748017
        ],
        [
          8.6644708,
          47.174805
        ],
        [
          8.6644785,
          47.1747716
        ],
        [
          8.6645343,
          47.1747775
        ],
        [
          8.6644905,
          47.1749678
        ],
        [
          8.6644032,
          47.1749586
        ]
      ]
    ]
  }
},
{
  "type": "Feature",
  "id": "node/298540366",
  "properties": {
    "amenity": "fire_station",
    "name": "Feuerwehr Langnau am Albis",
    "id": "node/298540366"
  },
  "geometry": {
    "type": "Point",
    "coordinates": [
      8.540418,
      47.2914327
    ]
  }
},
{
  "type": "Feature",
  "id": "node/304826155",
  "properties": {
    "amenity": "fire_station",
    "name": "Feuerwehr Buchs-Dällikon",
    "id": "node/304826155"
  },
  "geometry": {
    "type": "Point",
    "coordinates": [
      8.4405208,
      47.4599144
    ]
  }
},
{
  "type": "Feature",
  "id": "node/310859339",
  "properties": {
    "addr:city": "Niederhasli",
    "addr:postcode": "8155",
    "addr:street": "Industriestrasse",
    "amenity": "fire_station",
    "name": "Feuerwehr Niederhasli",
    "id": "node/310859339"
  },
  "geometry": {
    "type": "Point",
    "coordinates": [
      8.4911804,
      47.4793861
    ]
  }
},
{
  "type": "Feature",
  "id": "node/312747435",
  "properties": {
    "amenity": "fire_station",
    "name": "Feuerwehr Schlieren",
    "id": "node/312747435"
  },
  "geometry": {
    "type": "Point",
    "coordinates": [
      8.4483327,
      47.3941228
    ]
  }
},
{
  "type": "Feature",
  "id": "node/320133207",
  "properties": {
    "addr:city": "Uster",
    "addr:housenumber": "7",
    "addr:postcode": "8610",
    "addr:street": "Dammstrasse",
    "amenity": "fire_station",
    "name": "Feuerwehr Uster",
    "id": "node/320133207"
  },
  "geometry": {
    "type": "Point",
    "coordinates": [
      8.7152843,
      47.3535369
    ]
  }
},
{
  "type": "Feature",
  "id": "node/336313251",
  "properties": {
    "addr:city": "Maur",
    "addr:country": "CH",
    "addr:housenumber": "8",
    "addr:postcode": "8124",
    "addr:street": "Zürichstrasse",
    "amenity": "fire_station",
    "name": "Feuerwehr Maur, Hauptdepot",
    "website": "http://www.feuerwehrmaur.ch/",
    "id": "node/336313251"
  },
  "geometry": {
    "type": "Point",
    "coordinates": [
      8.6680814,
      47.3406221
    ]
  }
},
{
  "type": "Feature",
  "id": "node/370747057",
  "properties": {
    "amenity": "fire_station",
    "name": "Feuerwehr unteres Furttal - Depot Otelfingen",
    "id": "node/370747057"
  },
  "geometry": {
    "type": "Point",
    "coordinates": [
      8.3854189,
      47.4593104
    ]
  }
},
{
  "type": "Feature",
  "id": "node/370747292",
  "properties": {
    "amenity": "fire_station",
    "id": "node/370747292"
  },
  "geometry": {
    "type": "Point",
    "coordinates": [
      8.4056757,
      47.4457316
    ]
  }
},
{
  "type": "Feature",
  "id": "node/467522058",
  "properties": {
    "addr:housenumber": "125",
    "addr:postcode": "8105",
    "addr:street": "Riedthofstrasse",
    "amenity": "fire_station",
    "name": "Feuerwehr Regensdorf",
    "opening_hours": "24/7",
    "phone": "+41 44 843 33 10",
    "source": "knowledge",
    "website": "https://lodur-zh.ch/regensdorf/",
    "id": "node/467522058"
  },
  "geometry": {
    "type": "Point",
    "coordinates": [
      8.4637431,
      47.4384544
    ]
  }
},
{
  "type": "Feature",
  "id": "node/469240394",
  "properties": {
    "amenity": "fire_station",
    "id": "node/469240394"
  },
  "geometry": {
    "type": "Point",
    "coordinates": [
      8.6928122,
      47.3040278
    ]
  }
},
{
  "type": "Feature",
  "id": "node/471957872",
  "properties": {
    "addr:city": "Bachenbülach",
    "addr:postcode": "8184",
    "addr:street": "Grabenstrasse",
    "amenity": "fire_station",
    "name": "Feuerwehr Bachenbülach-Winkel, Depot Bachenbülach",
    "id": "node/471957872"
  },
  "geometry": {
    "type": "Point",
    "coordinates": [
      8.541674,
      47.503568
    ]
  }
},
{
  "type": "Feature",
  "id": "node/475516599",
  "properties": {
    "amenity": "fire_station",
    "name": "Löschzug",
    "id": "node/475516599"
  },
  "geometry": {
    "type": "Point",
    "coordinates": [
      8.7065996,
      47.2499601
    ]
  }
},
{
  "type": "Feature",
  "id": "node/579651429",
  "properties": {
    "addr:city": "Fehraltorf",
    "addr:postcode": "8320",
    "addr:street": "Schulhausstrasse",
    "amenity": "fire_station",
    "name": "Feuerwehr Fehraltorf",
    "id": "node/579651429"
  },
  "geometry": {
    "type": "Point",
    "coordinates": [
      8.753809,
      47.3898315
    ]
  }
},
{
  "type": "Feature",
  "id": "node/638281685",
  "properties": {
    "amenity": "fire_station",
    "name": "Au",
    "id": "node/638281685"
  },
  "geometry": {
    "type": "Point",
    "coordinates": [
      8.6485168,
      47.2451546
    ]
  }
},
{
  "type": "Feature",
  "id": "node/664420085",
  "properties": {
    "addr:city": "Wetzikon",
    "addr:housenumber": "5",
    "addr:postcode": "8620",
    "addr:street": "Farbstrasse",
    "amenity": "fire_station",
    "name": "Feuerwehr Wetzikon-Seegräben",
    "operator": "Feuerwehr Wetzikon-Seegräben",
    "website": "https://www.feuerwehr.ws/",
    "id": "node/664420085"
  },
  "geometry": {
    "type": "Point",
    "coordinates": [
      8.7959822,
      47.3260832
    ]
  }
},
{
  "type": "Feature",
  "id": "node/703218511",
  "properties": {
    "addr:city": "Zürich",
    "addr:housenumber": "48",
    "addr:postcode": "8006",
    "addr:street": "Stapferstrasse",
    "amenity": "fire_station",
    "name": "Milizefeuerwehr Kompanie Ost",
    "operator": "Schutz und Rettung Zürich",
    "id": "node/703218511"
  },
  "geometry": {
    "type": "Point",
    "coordinates": [
      8.5459714,
      47.3847595
    ]
  }
},
{
  "type": "Feature",
  "id": "node/878387643",
  "properties": {
    "amenity": "fire_station",
    "id": "node/878387643"
  },
  "geometry": {
    "type": "Point",
    "coordinates": [
      8.602838,
      47.3432709
    ]
  }
},
{
  "type": "Feature",
  "id": "node/972117098",
  "properties": {
    "amenity": "fire_station",
    "name": "Feuerwehr Thurtal-Süd, Depot Rickenbach",
    "id": "node/972117098"
  },
  "geometry": {
    "type": "Point",
    "coordinates": [
      8.7926479,
      47.5508779
    ]
  }
},
{
  "type": "Feature",
  "id": "node/1084287329",
  "properties": {
    "amenity": "fire_station",
    "name": "Feuerwehr Niederglatt",
    "id": "node/1084287329"
  },
  "geometry": {
    "type": "Point",
    "coordinates": [
      8.4935468,
      47.4987927
    ]
  }
},
{
  "type": "Feature",
  "id": "node/1202838388",
  "properties": {
    "amenity": "fire_station",
    "name": "Flughafenfeuerwehr, Wache Dock A",
    "id": "node/1202838388"
  },
  "geometry": {
    "type": "Point",
    "coordinates": [
      8.5558422,
      47.4539454
    ]
  }
},
{
  "type": "Feature",
  "id": "node/1202857728",
  "properties": {
    "amenity": "fire_station",
    "name": "Feuerwehr Kloten",
    "id": "node/1202857728"
  },
  "geometry": {
    "type": "Point",
    "coordinates": [
      8.5882936,
      47.4516538
    ]
  }
},
{
  "type": "Feature",
  "id": "node/1210603047",
  "properties": {
    "addr:city": "Schönenberg",
    "addr:housenumber": "2",
    "addr:postcode": "8824",
    "addr:street": "Hüttnerstrasse",
    "amenity": "fire_station",
    "name": "Feuerwehr Wädenswil - Depot Schönenberg",
    "operator": "Stadt Wädenswil",
    "id": "node/1210603047"
  },
  "geometry": {
    "type": "Point",
    "coordinates": [
      8.6439952,
      47.1925276
    ]
  }
},
{
  "type": "Feature",
  "id": "node/1252865939",
  "properties": {
    "amenity": "fire_station",
    "name": "Feuerwehr Hombrechtikon",
    "website": "https://feuerwehr-hombrechtikon.ch",
    "id": "node/1252865939"
  },
  "geometry": {
    "type": "Point",
    "coordinates": [
      8.7678954,
      47.2492764
    ]
  }
},
{
  "type": "Feature",
  "id": "node/1305692978",
  "properties": {
    "amenity": "fire_station",
    "name": "Feuerwehr Buchs-Dällikon",
    "id": "node/1305692978"
  },
  "geometry": {
    "type": "Point",
    "coordinates": [
      8.438008,
      47.4385348
    ]
  }
},
{
  "type": "Feature",
  "id": "node/1420531806",
  "properties": {
    "addr:city": "Seegräben",
    "addr:postcode": "8607",
    "addr:street": "Rutschbergstrasse",
    "amenity": "fire_station",
    "name": "Feuerwehr Wetzikon-Seegräben, Depot Seegräben",
    "id": "node/1420531806"
  },
  "geometry": {
    "type": "Point",
    "coordinates": [
      8.7701641,
      47.3434584
    ]
  }
},
{
  "type": "Feature",
  "id": "node/1492865729",
  "properties": {
    "addr:housenumber": "4",
    "addr:street": "Obere Geerenstrasse",
    "amenity": "fire_station",
    "id": "node/1492865729"
  },
  "geometry": {
    "type": "Point",
    "coordinates": [
      8.5989404,
      47.3816764
    ]
  }
},
{
  "type": "Feature",
  "id": "node/1516304507",
  "properties": {
    "amenity": "fire_station",
    "name": "Feuerwehr Pfäffikon",
    "operator": "Gemeinde Pfäffikon",
    "id": "node/1516304507"
  },
  "geometry": {
    "type": "Point",
    "coordinates": [
      8.7692762,
      47.3665391
    ]
  }
},
{
  "type": "Feature",
  "id": "node/1601645836",
  "properties": {
    "amenity": "fire_station",
    "id": "node/1601645836"
  },
  "geometry": {
    "type": "Point",
    "coordinates": [
      8.8514852,
      47.4349797
    ]
  }
},
{
  "type": "Feature",
  "id": "node/1643148442",
  "properties": {
    "amenity": "fire_station",
    "name": "Feuerwehr Obfelden",
    "id": "node/1643148442"
  },
  "geometry": {
    "type": "Point",
    "coordinates": [
      8.41655,
      47.2606411
    ]
  }
},
{
  "type": "Feature",
  "id": "node/1999821206",
  "properties": {
    "addr:city": "Stadel",
    "addr:postcode": "8174",
    "addr:street": "Kaiserstuhlerstrasse",
    "amenity": "fire_station",
    "name": "Feuerwehr Glastawei - Depot Stadel",
    "id": "node/1999821206"
  },
  "geometry": {
    "type": "Point",
    "coordinates": [
      8.4658225,
      47.5306073
    ]
  }
},
{
  "type": "Feature",
  "id": "node/2353441275",
  "properties": {
    "amenity": "fire_station",
    "name": "Feuerwehr- u. Werkgebäude",
    "id": "node/2353441275"
  },
  "geometry": {
    "type": "Point",
    "coordinates": [
      8.6321395,
      47.4177961
    ]
  }
},
{
  "type": "Feature",
  "id": "node/2399897496",
  "properties": {
    "addr:city": "Bauma",
    "addr:postcode": "8494",
    "addr:street": "Gublenstrasse",
    "amenity": "fire_station",
    "name": "Feuerwehr Bauma",
    "id": "node/2399897496"
  },
  "geometry": {
    "type": "Point",
    "coordinates": [
      8.8850417,
      47.365365
    ]
  }
},
{
  "type": "Feature",
  "id": "node/2677616092",
  "properties": {
    "amenity": "fire_station",
    "name": "Betriebsfeuerwehr PUK Rheinau",
    "id": "node/2677616092"
  },
  "geometry": {
    "type": "Point",
    "coordinates": [
      8.600024,
      47.6429768
    ]
  }
},
{
  "type": "Feature",
  "id": "node/2911963567",
  "properties": {
    "amenity": "fire_station",
    "name": "Feuerwehr Unteramt - Depot Stallikon",
    "id": "node/2911963567"
  },
  "geometry": {
    "type": "Point",
    "coordinates": [
      8.4890868,
      47.3281767
    ]
  }
},
{
  "type": "Feature",
  "id": "node/3426244260",
  "properties": {
    "addr:city": "Zürich",
    "addr:country": "CH",
    "addr:housenumber": "18",
    "addr:postcode": "8050",
    "addr:street": "Baumackerstrasse",
    "alt_name": "Feuerwehrdepot Oerlikon",
    "amenity": "fire_station",
    "contact:email": "kdt@kp-glattal.ch",
    "contact:emergency": "112",
    "contact:website": "https://www.kp-zhnord.ch/",
    "name": "Milizfeuerwehr Kompanie Nord - Depot Baumacker",
    "old_name": "Pikett Glattal",
    "operator": "Schutz & Rettung Zürich",
    "source": "survey and website",
    "website": "https://www.kp-zhnord.ch/",
    "id": "node/3426244260"
  },
  "geometry": {
    "type": "Point",
    "coordinates": [
      8.5456581,
      47.4084927
    ]
  }
},
{
  "type": "Feature",
  "id": "node/3426259031",
  "properties": {
    "addr:city": "Zürich",
    "addr:country": "CH",
    "addr:housenumber": "40",
    "addr:postcode": "8051",
    "addr:street": "Stettbachstrasse",
    "alt_name": "Feuerwehrdepot Schwammendingen",
    "amenity": "fire_station",
    "contact:email": "kdt@kp-glattal.ch",
    "contact:emergency": "112",
    "contact:website": "http://www.kp-glattal.ch/?page_id=138",
    "name": "Feuerwehrdepot Stettbachstrasse",
    "operator": "Feuerwehr Kompanie Glattal - Schutz & Rettung Zürich",
    "source": "survey and website",
    "website": "http://www.kp-glattal.ch",
    "id": "node/3426259031"
  },
  "geometry": {
    "type": "Point",
    "coordinates": [
      8.5728531,
      47.4026832
    ]
  }
},
{
  "type": "Feature",
  "id": "node/3770461790",
  "properties": {
    "amenity": "fire_station",
    "name": "Feuerwehr Rüti",
    "id": "node/3770461790"
  },
  "geometry": {
    "type": "Point",
    "coordinates": [
      8.8523052,
      47.2556175
    ]
  }
},
{
  "type": "Feature",
  "id": "node/4058097989",
  "properties": {
    "amenity": "fire_station",
    "name": "Feuerwehr Rümlang",
    "id": "node/4058097989"
  },
  "geometry": {
    "type": "Point",
    "coordinates": [
      8.5304753,
      47.4521198
    ]
  }
},
{
  "type": "Feature",
  "id": "node/4265648191",
  "properties": {
    "addr:city": "Zürich",
    "addr:housenumber": "1",
    "addr:postcode": "8064",
    "addr:street": "Hardhof",
    "amenity": "fire_station",
    "name": "Milizfeuerwehr Kompanie Zürich West",
    "operator": "Stadt Zürich",
    "id": "node/4265648191"
  },
  "geometry": {
    "type": "Point",
    "coordinates": [
      8.4955621,
      47.3981445
    ]
  }
},
{
  "type": "Feature",
  "id": "node/4367651591",
  "properties": {
    "addr:city": "Russikon",
    "addr:housenumber": "5",
    "addr:postcode": "8332",
    "addr:street": "Riedweg",
    "amenity": "fire_station",
    "name": "Feuerwehr Russikon",
    "id": "node/4367651591"
  },
  "geometry": {
    "type": "Point",
    "coordinates": [
      8.7790295,
      47.3953613
    ]
  }
},
{
  "type": "Feature",
  "id": "node/4831038813",
  "properties": {
    "amenity": "fire_station",
    "name": "Geroldswil",
    "id": "node/4831038813"
  },
  "geometry": {
    "type": "Point",
    "coordinates": [
      8.4100528,
      47.4219584
    ]
  }
},
{
  "type": "Feature",
  "id": "node/4849218475",
  "properties": {
    "amenity": "fire_station",
    "name": "Feuerwehr Uitikon-Waldegg",
    "id": "node/4849218475"
  },
  "geometry": {
    "type": "Point",
    "coordinates": [
      8.4535002,
      47.37001
    ]
  }
},
{
  "type": "Feature",
  "id": "node/4867930570",
  "properties": {
    "addr:city": "Steinmaur",
    "addr:housenumber": "30",
    "addr:postcode": "8162",
    "addr:street": "Hauptstrasse",
    "amenity": "fire_station",
    "operator": "Feuerwehr Banesto",
    "id": "node/4867930570"
  },
  "geometry": {
    "type": "Point",
    "coordinates": [
      8.4514981,
      47.4951429
    ]
  }
},
{
  "type": "Feature",
  "id": "node/5101977326",
  "properties": {
    "addr:city": "Affoltern am Albis",
    "addr:housenumber": "11",
    "addr:postcode": "8910",
    "addr:street": "Büelstrasse",
    "amenity": "fire_station",
    "email": "info@fwaaa.ch",
    "name": "Stützpunktfeuerwehr Affoltern am Albis",
    "phone": "+41 44 762 50 80",
    "website": "https://www.fwaaa.org/",
    "id": "node/5101977326"
  },
  "geometry": {
    "type": "Point",
    "coordinates": [
      8.4475922,
      47.2737265
    ]
  }
},
{
  "type": "Feature",
  "id": "node/5104780345",
  "properties": {
    "amenity": "fire_station",
    "id": "node/5104780345"
  },
  "geometry": {
    "type": "Point",
    "coordinates": [
      8.5410095,
      47.3878961
    ]
  }
},
{
  "type": "Feature",
  "id": "node/5282136023",
  "properties": {
    "addr:city": "Marthalen",
    "addr:housenumber": "10",
    "addr:postcode": "8460",
    "addr:street": "Ruedelfingerstrass",
    "amenity": "fire_station",
    "name": "Stützpunktfeuerwehr Weinland - Depot Marthalen",
    "id": "node/5282136023"
  },
  "geometry": {
    "type": "Point",
    "coordinates": [
      8.657363,
      47.6324672
    ]
  }
},
{
  "type": "Feature",
  "id": "node/5309142421",
  "properties": {
    "addr:city": "Winkel",
    "addr:postcode": "8185",
    "addr:street": "In der Breiti",
    "amenity": "fire_station",
    "name": "Feuerwehr Bachenbülach-Winkel, Depot Winkel",
    "id": "node/5309142421"
  },
  "geometry": {
    "type": "Point",
    "coordinates": [
      8.5516896,
      47.4927411
    ]
  }
},
{
  "type": "Feature",
  "id": "node/5314467631",
  "properties": {
    "addr:city": "Bonstetten",
    "addr:housenumber": "1",
    "addr:postcode": "8906",
    "addr:street": "Dorfstrasse",
    "amenity": "fire_station",
    "name": "Feuerwehr Unteramt - Depot Bonstetten",
    "website": "https://www.feuerwehrunteramt.ch/",
    "id": "node/5314467631"
  },
  "geometry": {
    "type": "Point",
    "coordinates": [
      8.4718553,
      47.315067
    ]
  }
},
{
  "type": "Feature",
  "id": "node/5618393455",
  "properties": {
    "amenity": "fire_station",
    "name": "Feuerwehr Zwillikon",
    "id": "node/5618393455"
  },
  "geometry": {
    "type": "Point",
    "coordinates": [
      8.4322778,
      47.2872388
    ]
  }
},
{
  "type": "Feature",
  "id": "node/5780241059",
  "properties": {
    "amenity": "fire_station",
    "name": "Betriebsfeuerwehr Sika",
    "id": "node/5780241059"
  },
  "geometry": {
    "type": "Point",
    "coordinates": [
      8.4894824,
      47.3976209
    ]
  }
},
{
  "type": "Feature",
  "id": "node/5998662717",
  "properties": {
    "amenity": "fire_station",
    "id": "node/5998662717"
  },
  "geometry": {
    "type": "Point",
    "coordinates": [
      8.7938601,
      47.5407008
    ]
  }
},
{
  "type": "Feature",
  "id": "node/6039076647",
  "properties": {
    "amenity": "fire_station",
    "name": "Feuerwehr Oberamt - Depot Kappel am Albis",
    "id": "node/6039076647"
  },
  "geometry": {
    "type": "Point",
    "coordinates": [
      8.5265708,
      47.2264479
    ]
  }
},
{
  "type": "Feature",
  "id": "node/6179280239",
  "properties": {
    "amenity": "fire_station",
    "name": "Feuerwehr Dübendorf - Wangen-Brüttisellen",
    "id": "node/6179280239"
  },
  "geometry": {
    "type": "Point",
    "coordinates": [
      8.6086544,
      47.4000694
    ]
  }
},
{
  "type": "Feature",
  "id": "node/6193462242",
  "properties": {
    "amenity": "fire_station",
    "name": "Feuerwehr Grüningen",
    "id": "node/6193462242"
  },
  "geometry": {
    "type": "Point",
    "coordinates": [
      8.7576613,
      47.2836446
    ]
  }
},
{
  "type": "Feature",
  "id": "node/6587056522",
  "properties": {
    "addr:city": "Eglisau",
    "addr:postcode": "8193",
    "addr:street": "Bauelenzelgstrasse",
    "amenity": "fire_station",
    "name": "Feuerwehrlokal Eglisau",
    "operator": "Feuerwehr Eglisau-Hüntwangen-Wil",
    "id": "node/6587056522"
  },
  "geometry": {
    "type": "Point",
    "coordinates": [
      8.514285,
      47.5796283
    ]
  }
},
{
  "type": "Feature",
  "id": "node/7147229679",
  "properties": {
    "amenity": "fire_station",
    "name": "Betriebsfeuerwehr UZH",
    "operator": "Universität Zürich",
    "website": "https://www.su.uzh.ch/de/activities/feuerwehr.html",
    "id": "node/7147229679"
  },
  "geometry": {
    "type": "Point",
    "coordinates": [
      8.548819,
      47.398474
    ]
  }
},
{
  "type": "Feature",
  "id": "node/7147229681",
  "properties": {
    "addr:city": "Zürich",
    "addr:housenumber": "10",
    "addr:postcode": "8091",
    "addr:street": "Frauenklinikstrasse",
    "amenity": "fire_station",
    "name": "Betriebsfeuerwehr USZ",
    "operator": "USZ",
    "website": "https://www.usz.ch",
    "id": "node/7147229681"
  },
  "geometry": {
    "type": "Point",
    "coordinates": [
      8.5506168,
      47.3788817
    ]
  }
},
{
  "type": "Feature",
  "id": "node/7353590220",
  "properties": {
    "amenity": "fire_station",
    "name": "Feuerwehr Bülach",
    "id": "node/7353590220"
  },
  "geometry": {
    "type": "Point",
    "coordinates": [
      8.5379874,
      47.5157952
    ]
  }
},
{
  "type": "Feature",
  "id": "node/7442977339",
  "properties": {
    "amenity": "fire_station",
    "name": "Feuerwehr Schwerzenbach",
    "id": "node/7442977339"
  },
  "geometry": {
    "type": "Point",
    "coordinates": [
      8.6530113,
      47.3836415
    ]
  }
},
{
  "type": "Feature",
  "id": "node/7462551852",
  "properties": {
    "addr:city": "Oberstammheim",
    "addr:housenumber": "39",
    "addr:postcode": "8477",
    "addr:street": "Hauptstrasse",
    "amenity": "fire_station",
    "name": "Feuerwehr Stammertal - Depot Oberstammheim",
    "id": "node/7462551852"
  },
  "geometry": {
    "type": "Point",
    "coordinates": [
      8.7990682,
      47.63253
    ]
  }
},
{
  "type": "Feature",
  "id": "node/7462551853",
  "properties": {
    "addr:city": "Samstagern",
    "addr:postcode": "8833",
    "addr:street": "Bärenbrügglistrasse",
    "amenity": "fire_station",
    "name": "Feuerwehr Richterswil - Depot Samstagern",
    "id": "node/7462551853"
  },
  "geometry": {
    "type": "Point",
    "coordinates": [
      8.6776762,
      47.1934187
    ]
  }
},
{
  "type": "Feature",
  "id": "node/7462551854",
  "properties": {
    "addr:city": "Wil",
    "addr:housenumber": "10",
    "addr:postcode": "8196",
    "addr:street": "Schützenhausstrasse",
    "amenity": "fire_station",
    "name": "Feuerwehr Rafz-Wil - Depot Wil",
    "id": "node/7462551854"
  },
  "geometry": {
    "type": "Point",
    "coordinates": [
      8.5067545,
      47.5995759
    ]
  }
},
{
  "type": "Feature",
  "id": "node/7462551855",
  "properties": {
    "addr:city": "Uhwiesen",
    "addr:housenumber": "5",
    "addr:postcode": "8248",
    "addr:street": "Wassergasse",
    "amenity": "fire_station",
    "name": "Feuerwehr Kohlfirst",
    "id": "node/7462551855"
  },
  "geometry": {
    "type": "Point",
    "coordinates": [
      8.6399974,
      47.6674905
    ]
  }
},
{
  "type": "Feature",
  "id": "node/7462551856",
  "properties": {
    "addr:city": "Höri",
    "addr:housenumber": "6",
    "addr:postcode": "8181",
    "addr:street": "Schulhausstrasse",
    "amenity": "fire_station",
    "name": "Feuerwehr Höri-Hochfelden - Depot Höri",
    "id": "node/7462551856"
  },
  "geometry": {
    "type": "Point",
    "coordinates": [
      8.50795,
      47.5081616
    ]
  }
},
{
  "type": "Feature",
  "id": "node/7462946206",
  "properties": {
    "addr:city": "Tann",
    "addr:housenumber": "44",
    "addr:postcode": "8632",
    "addr:street": "Nauenstrasse",
    "amenity": "fire_station",
    "name": "Feuerwehr Dürnten",
    "website": "http://www.feuerwehr-duernten.ch/",
    "id": "node/7462946206"
  },
  "geometry": {
    "type": "Point",
    "coordinates": [
      8.856668,
      47.2743746
    ]
  }
},
{
  "type": "Feature",
  "id": "node/7660405716",
  "properties": {
    "addr:city": "Elgg",
    "addr:housenumber": "6",
    "addr:postcode": "8353",
    "addr:street": "Oberhofstrasse",
    "amenity": "fire_station",
    "description": "Feuerwehr der Gemeinden Elgg und Hagenbuch",
    "name": "Feuerwehr Eulachtal",
    "operator": "Gemeinde Elgg",
    "website": "https://feuerwehr-eulachtal.ch",
    "id": "node/7660405716"
  },
  "geometry": {
    "type": "Point",
    "coordinates": [
      8.8711298,
      47.4904296
    ]
  }
},
{
  "type": "Feature",
  "id": "node/7918372807",
  "properties": {
    "amenity": "fire_station",
    "id": "node/7918372807"
  },
  "geometry": {
    "type": "Point",
    "coordinates": [
      8.5358651,
      47.2402652
    ]
  }
},
{
  "type": "Feature",
  "id": "node/8562579136",
  "properties": {
    "addr:housenumber": "7",
    "addr:street": "Brüelgasse",
    "amenity": "fire_station",
    "name": "Feuerwehr Altbach - Depot Brütten",
    "id": "node/8562579136"
  },
  "geometry": {
    "type": "Point",
    "coordinates": [
      8.6757043,
      47.4729076
    ]
  }
},
{
  "type": "Feature",
  "id": "node/8859864018",
  "properties": {
    "addr:city": "Küsnacht",
    "addr:country": "CH",
    "addr:housenumber": "30a",
    "addr:postcode": "8700",
    "addr:street": "Freihofstrasse",
    "amenity": "fire_station",
    "building": "yes",
    "name": "Feuerwehr Küsnacht ZH",
    "id": "node/8859864018"
  },
  "geometry": {
    "type": "Point",
    "coordinates": [
      8.5863561,
      47.310052
    ]
  }
},
{
  "type": "Feature",
  "id": "node/8919425871",
  "properties": {
    "amenity": "fire_station",
    "name": "Milizfeuerwehr Kompanie Süd",
    "operator": "Schutz & Rettung Zürich",
    "id": "node/8919425871"
  },
  "geometry": {
    "type": "Point",
    "coordinates": [
      8.5230129,
      47.3657054
    ]
  }
},
{
  "type": "Feature",
  "id": "node/8919435288",
  "properties": {
    "addr:city": "Zürich",
    "addr:housenumber": "42",
    "addr:postcode": "8050",
    "addr:street": "Neunbrunnenstrasse",
    "amenity": "fire_station",
    "name": "Milizfeuerwehr Kompanie Nord - Depot Neunbrunnen",
    "operator": "Schutz & Rettung Zürich",
    "website": "https://www.kp-zhnord.ch/",
    "id": "node/8919435288"
  },
  "geometry": {
    "type": "Point",
    "coordinates": [
      8.5373393,
      47.4172255
    ]
  }
}
]
}
